{
"type": "FeatureCollection",
"name": "stations",
"crs": { "type": "name", "properties": { "name": "urn:ogc:def:crs:OGC:1.3:CRS84" } },
"features": [
{ "type": "Feature", "properties": { "NAME": "大甲（交通局）", "stop_id": "TRD_036" }, "geometry": { "type": "Point", "coordinates": [ 120.627145751922342, 24.344334143453402, 0.0 ] } },
{ "type": "Feature", "properties": { "NAME": "日南", "stop_id": "TRD_035" }, "geometry": { "type": "Point", "coordinates": [ 120.653892888441561, 24.377599862574247, 0.0 ] } },
{ "type": "Feature", "properties": { "NAME": "清水", "stop_id": "TRD_038" }, "geometry": { "type": "Point", "coordinates": [ 120.569192998982544, 24.264289852554487, 0.0 ] } },
{ "type": "Feature", "properties": { "NAME": "甲南", "stop_id": "TRD_037" }, "geometry": { "type": "Point", "coordinates": [ 120.60248375040878, 24.303567446607872, 0.0 ] } },
{ "type": "Feature", "properties": { "NAME": "后里（交通局）", "stop_id": "TRD_051" }, "geometry": { "type": "Point", "coordinates": [ 120.733027462999203, 24.309046611690071, 0.0 ] } },
{ "type": "Feature", "properties": { "NAME": "大安", "stop_id": "TRD_050" }, "geometry": { "type": "Point", "coordinates": [ 120.750081706760511, 24.322544580402003, 0.0 ] } },
{ "type": "Feature", "properties": { "NAME": "豐原（交通局）", "stop_id": "TRD_052" }, "geometry": { "type": "Point", "coordinates": [ 120.722946871143918, 24.25389784888765, 0.0 ] } },
{ "type": "Feature", "properties": { "NAME": "沙鹿", "stop_id": "TRD_039" }, "geometry": { "type": "Point", "coordinates": [ 120.55729407802427, 24.236916629543618, 0.0 ] } },
{ "type": "Feature", "properties": { "NAME": "龍井", "stop_id": "TRD_040" }, "geometry": { "type": "Point", "coordinates": [ 120.543049975121178, 24.197592585769076, 0.0 ] } },
{ "type": "Feature", "properties": { "NAME": "潭子", "stop_id": "TRD_053" }, "geometry": { "type": "Point", "coordinates": [ 120.705902403152763, 24.212937477820837, 0.0 ] } },
{ "type": "Feature", "properties": { "NAME": "彰化（交通局）", "stop_id": "TRD_057" }, "geometry": { "type": "Point", "coordinates": [ 120.538369811803378, 24.081670844667698, 0.0 ] } },
{ "type": "Feature", "properties": { "NAME": "大肚", "stop_id": "TRD_041" }, "geometry": { "type": "Point", "coordinates": [ 120.542352727317606, 24.154193510586836, 0.0 ] } },
{ "type": "Feature", "properties": { "NAME": "追分", "stop_id": "TRD_042" }, "geometry": { "type": "Point", "coordinates": [ 120.569877850647998, 24.120183559911471, 0.0 ] } },
{ "type": "Feature", "properties": { "NAME": "王田", "stop_id": "TRD_056" }, "geometry": { "type": "Point", "coordinates": [ 120.588438274749564, 24.114999864741559, 0.0 ] } },
{ "type": "Feature", "properties": { "NAME": "烏日", "stop_id": "TRD_055" }, "geometry": { "type": "Point", "coordinates": [ 120.622514516878525, 24.10884358593615, 0.0 ] } },
{ "type": "Feature", "properties": { "NAME": "臺中（交通局）", "stop_id": "TRD_054" }, "geometry": { "type": "Point", "coordinates": [ 120.684934609063845, 24.136735968464965, 0.0 ] } },
{ "type": "Feature", "properties": { "NAME": "員林（交通局）", "stop_id": "TRD_059" }, "geometry": { "type": "Point", "coordinates": [ 120.569375401628491, 23.959567110207391, 0.0 ] } },
{ "type": "Feature", "properties": { "NAME": "唭里岸", "stop_id": "TRD_130" }, "geometry": { "type": "Point", "coordinates": [ 121.517662295766129, 25.111593231537672, 0.0 ] } },
{ "type": "Feature", "properties": { "NAME": "士林", "stop_id": "TRD_129" }, "geometry": { "type": "Point", "coordinates": [ 121.526415520276146, 25.092131561522443, 0.0 ] } },
{ "type": "Feature", "properties": { "NAME": "七堵", "stop_id": "TRD_003" }, "geometry": { "type": "Point", "coordinates": [ 121.715914726646474, 25.097200854910536, 0.0 ] } },
{ "type": "Feature", "properties": { "NAME": "八堵", "stop_id": "TRD_002" }, "geometry": { "type": "Point", "coordinates": [ 121.729235548543159, 25.108479811928969, 0.0 ] } },
{ "type": "Feature", "properties": { "NAME": "暖暖", "stop_id": "TRD_087" }, "geometry": { "type": "Point", "coordinates": [ 121.740631502561342, 25.102110668585802, 0.0 ] } },
{ "type": "Feature", "properties": { "NAME": "基隆", "stop_id": "TRD_001" }, "geometry": { "type": "Point", "coordinates": [ 121.739383878582245, 25.132597978926594, 0.0 ] } },
{ "type": "Feature", "properties": { "NAME": "宮ノ下", "stop_id": "TRD_128" }, "geometry": { "type": "Point", "coordinates": [ 121.523365131118979, 25.078313643041643, 0.0 ] } },
{ "type": "Feature", "properties": { "NAME": "圓山", "stop_id": "TRD_127" }, "geometry": { "type": "Point", "coordinates": [ 121.520344605255346, 25.071374918691092, 0.0 ] } },
{ "type": "Feature", "properties": { "NAME": "雙連", "stop_id": "TRD_126" }, "geometry": { "type": "Point", "coordinates": [ 121.520775202332629, 25.058791412479739, 0.0 ] } },
{ "type": "Feature", "properties": { "NAME": "大正街", "stop_id": "TRD_125" }, "geometry": { "type": "Point", "coordinates": [ 121.520343215331948, 25.050558243758143, 0.0 ] } },
{ "type": "Feature", "properties": { "NAME": "臺北", "stop_id": "TRD_008" }, "geometry": { "type": "Point", "coordinates": [ 121.515741057417102, 25.048185613362545, 0.0 ] } },
{ "type": "Feature", "properties": { "NAME": "南港", "stop_id": "TRD_006" }, "geometry": { "type": "Point", "coordinates": [ 121.611844122266589, 25.053896786834464, 0.0 ] } },
{ "type": "Feature", "properties": { "NAME": "松山", "stop_id": "TRD_007" }, "geometry": { "type": "Point", "coordinates": [ 121.577580489475125, 25.049188867668864, 0.0 ] } },
{ "type": "Feature", "properties": { "NAME": "板橋", "stop_id": "TRD_010" }, "geometry": { "type": "Point", "coordinates": [ 121.459344971583405, 25.008348206196047, 0.0 ] } },
{ "type": "Feature", "properties": { "NAME": "萬華", "stop_id": "TRD_009" }, "geometry": { "type": "Point", "coordinates": [ 121.501014508526481, 25.03324191298762, 0.0 ] } },
{ "type": "Feature", "properties": { "NAME": "竹北", "stop_id": "TRD_022" }, "geometry": { "type": "Point", "coordinates": [ 121.009361880975831, 24.839038659193722, 0.0 ] } },
{ "type": "Feature", "properties": { "NAME": "楊梅", "stop_id": "TRD_018" }, "geometry": { "type": "Point", "coordinates": [ 121.14614537138678, 24.907990614865163, 0.0 ] } },
{ "type": "Feature", "properties": { "NAME": "外澳", "stop_id": "TRD_099" }, "geometry": { "type": "Point", "coordinates": [ 121.845885521600067, 24.883925841761972, 0.0 ] } },
{ "type": "Feature", "properties": { "NAME": "頭圍", "stop_id": "TRD_100" }, "geometry": { "type": "Point", "coordinates": [ 121.822702070439064, 24.858787337925133, 0.0 ] } },
{ "type": "Feature", "properties": { "NAME": "香山", "stop_id": "TRD_024" }, "geometry": { "type": "Point", "coordinates": [ 120.91438637880556, 24.763847312419998, 0.0 ] } },
{ "type": "Feature", "properties": { "NAME": "新竹", "stop_id": "TRD_023" }, "geometry": { "type": "Point", "coordinates": [ 120.971855946995035, 24.801238804606964, 0.0 ] } },
{ "type": "Feature", "properties": { "NAME": "四結", "stop_id": "TRD_102" }, "geometry": { "type": "Point", "coordinates": [ 121.763009017731491, 24.786993232670547, 0.0 ] } },
{ "type": "Feature", "properties": { "NAME": "礁溪", "stop_id": "TRD_101" }, "geometry": { "type": "Point", "coordinates": [ 121.775567603537255, 24.826759346363364, 0.0 ] } },
{ "type": "Feature", "properties": { "NAME": "竹南", "stop_id": "TRD_026" }, "geometry": { "type": "Point", "coordinates": [ 120.880663613618751, 24.686998995444441, 0.0 ] } },
{ "type": "Feature", "properties": { "NAME": "羅東", "stop_id": "TRD_105" }, "geometry": { "type": "Point", "coordinates": [ 121.774403959976325, 24.678235158420584, 0.0 ] } },
{ "type": "Feature", "properties": { "NAME": "二結", "stop_id": "TRD_104" }, "geometry": { "type": "Point", "coordinates": [ 121.774201355876642, 24.706220098928345, 0.0 ] } },
{ "type": "Feature", "properties": { "NAME": "公司寮", "stop_id": "TRD_030" }, "geometry": { "type": "Point", "coordinates": [ 120.75932868028157, 24.611709137575531, 0.0 ] } },
{ "type": "Feature", "properties": { "NAME": "後龍", "stop_id": "TRD_029" }, "geometry": { "type": "Point", "coordinates": [ 120.786682643300921, 24.616072269822496, 0.0 ] } },
{ "type": "Feature", "properties": { "NAME": "大山脚", "stop_id": "TRD_028" }, "geometry": { "type": "Point", "coordinates": [ 120.803506096181138, 24.646015032326684, 0.0 ] } },
{ "type": "Feature", "properties": { "NAME": "北勢（交通局）", "stop_id": "TRD_044" }, "geometry": { "type": "Point", "coordinates": [ 120.823584308460866, 24.600939752905195, 0.0 ] } },
{ "type": "Feature", "properties": { "NAME": "造橋", "stop_id": "TRD_043" }, "geometry": { "type": "Point", "coordinates": [ 120.867150101675151, 24.641909007917697, 0.0 ] } },
{ "type": "Feature", "properties": { "NAME": "淡文湖", "stop_id": "TRD_027" }, "geometry": { "type": "Point", "coordinates": [ 120.85848006707208, 24.657155685683232, 0.0 ] } },
{ "type": "Feature", "properties": { "NAME": "冬山", "stop_id": "TRD_106" }, "geometry": { "type": "Point", "coordinates": [ 121.792227348042232, 24.636663473943216, 0.0 ] } },
{ "type": "Feature", "properties": { "NAME": "新城（交通局）", "stop_id": "TRD_107" }, "geometry": { "type": "Point", "coordinates": [ 121.822563384443228, 24.615828422324658, 0.0 ] } },
{ "type": "Feature", "properties": { "NAME": "蘇澳（交通局）", "stop_id": "TRD_108" }, "geometry": { "type": "Point", "coordinates": [ 121.851755442749749, 24.594993435995626, 0.0 ] } },
{ "type": "Feature", "properties": { "NAME": "白沙屯", "stop_id": "TRD_031" }, "geometry": { "type": "Point", "coordinates": [ 120.707891662319597, 24.564793556460362, 0.0 ] } },
{ "type": "Feature", "properties": { "NAME": "新埔", "stop_id": "TRD_032" }, "geometry": { "type": "Point", "coordinates": [ 120.695257474483739, 24.539975176069667, 0.0 ] } },
{ "type": "Feature", "properties": { "NAME": "苗栗", "stop_id": "TRD_045" }, "geometry": { "type": "Point", "coordinates": [ 120.822288123011006, 24.569970962055649, 0.0 ] } },
{ "type": "Feature", "properties": { "NAME": "南勢", "stop_id": "TRD_046" }, "geometry": { "type": "Point", "coordinates": [ 120.791291896237524, 24.522161424390081, 0.0 ] } },
{ "type": "Feature", "properties": { "NAME": "通霄", "stop_id": "TRD_033" }, "geometry": { "type": "Point", "coordinates": [ 120.67812188554889, 24.491600136556272, 0.0 ] } },
{ "type": "Feature", "properties": { "NAME": "苑裡", "stop_id": "TRD_034" }, "geometry": { "type": "Point", "coordinates": [ 120.651042605416293, 24.443919187374128, 0.0 ] } },
{ "type": "Feature", "properties": { "NAME": "銅鑼", "stop_id": "TRD_047" }, "geometry": { "type": "Point", "coordinates": [ 120.786011776936704, 24.48626780492279, 0.0 ] } },
{ "type": "Feature", "properties": { "NAME": "三叉", "stop_id": "TRD_048" }, "geometry": { "type": "Point", "coordinates": [ 120.774169840422758, 24.420963552060513, 0.0 ] } },
{ "type": "Feature", "properties": { "NAME": "淡水", "stop_id": "TRD_133" }, "geometry": { "type": "Point", "coordinates": [ 121.444893312818323, 25.168828821183595, 0.0 ] } },
{ "type": "Feature", "properties": { "NAME": "新北投", "stop_id": "TRD_124" }, "geometry": { "type": "Point", "coordinates": [ 121.503829312229868, 25.137038666324266, 0.0 ] } },
{ "type": "Feature", "properties": { "NAME": "北投", "stop_id": "TRD_123" }, "geometry": { "type": "Point", "coordinates": [ 121.498546123416943, 25.132466069830127, 0.0 ] } },
{ "type": "Feature", "properties": { "NAME": "江頭", "stop_id": "TRD_131" }, "geometry": { "type": "Point", "coordinates": [ 121.470273059305271, 25.128792623197231, 0.0 ] } },
{ "type": "Feature", "properties": { "NAME": "平鎮", "stop_id": "TRD_017" }, "geometry": { "type": "Point", "coordinates": [ 121.183713854687426, 24.919715873049579, 0.0 ] } },
{ "type": "Feature", "properties": { "NAME": "中壢", "stop_id": "TRD_016" }, "geometry": { "type": "Point", "coordinates": [ 121.226032441494937, 24.953629791002445, 0.0 ] } },
{ "type": "Feature", "properties": { "NAME": "崁子脚", "stop_id": "TRD_015" }, "geometry": { "type": "Point", "coordinates": [ 121.258657769792393, 24.972832705343741, 0.0 ] } },
{ "type": "Feature", "properties": { "NAME": "桃園", "stop_id": "TRD_014" }, "geometry": { "type": "Point", "coordinates": [ 121.313756782000979, 24.989074140356163, 0.0 ] } },
{ "type": "Feature", "properties": { "NAME": "鶯歌", "stop_id": "TRD_013" }, "geometry": { "type": "Point", "coordinates": [ 121.355531857268417, 24.954996661554041, 0.0 ] } },
{ "type": "Feature", "properties": { "NAME": "山子脚", "stop_id": "TRD_012" }, "geometry": { "type": "Point", "coordinates": [ 121.393461662822361, 24.973206515150281, 0.0 ] } },
{ "type": "Feature", "properties": { "NAME": "樹林", "stop_id": "TRD_011" }, "geometry": { "type": "Point", "coordinates": [ 121.424768102359181, 24.991793378648492, 0.0 ] } },
{ "type": "Feature", "properties": { "NAME": "大里", "stop_id": "TRD_096" }, "geometry": { "type": "Point", "coordinates": [ 121.922714957233879, 24.966878128766254, 0.0 ] } },
{ "type": "Feature", "properties": { "NAME": "大溪", "stop_id": "TRD_097" }, "geometry": { "type": "Point", "coordinates": [ 121.890135211255043, 24.938943050415155, 0.0 ] } },
{ "type": "Feature", "properties": { "NAME": "田中（交通局）", "stop_id": "TRD_061" }, "geometry": { "type": "Point", "coordinates": [ 120.591194840421664, 23.858486863123787, 0.0 ] } },
{ "type": "Feature", "properties": { "NAME": "社頭", "stop_id": "TRD_060" }, "geometry": { "type": "Point", "coordinates": [ 120.580418854845959, 23.895717519629027, 0.0 ] } },
{ "type": "Feature", "properties": { "NAME": "林內", "stop_id": "TRD_063" }, "geometry": { "type": "Point", "coordinates": [ 120.614705133295914, 23.75954171890853, 0.0 ] } },
{ "type": "Feature", "properties": { "NAME": "斗南（交通局）", "stop_id": "TRD_065" }, "geometry": { "type": "Point", "coordinates": [ 120.480931077396534, 23.672885902659097, 0.0 ] } },
{ "type": "Feature", "properties": { "NAME": "斗六（交通局）", "stop_id": "TRD_064" }, "geometry": { "type": "Point", "coordinates": [ 120.540977670616044, 23.711935902933099, 0.0 ] } },
{ "type": "Feature", "properties": { "NAME": "大林（交通局）", "stop_id": "TRD_066" }, "geometry": { "type": "Point", "coordinates": [ 120.455712536917403, 23.600619566542441, 0.0 ] } },
{ "type": "Feature", "properties": { "NAME": "民雄", "stop_id": "TRD_067" }, "geometry": { "type": "Point", "coordinates": [ 120.431561109218876, 23.554810847633021, 0.0 ] } },
{ "type": "Feature", "properties": { "NAME": "嘉義（交通局）", "stop_id": "TRD_068" }, "geometry": { "type": "Point", "coordinates": [ 120.441168937432181, 23.479369930008573, 0.0 ] } },
{ "type": "Feature", "properties": { "NAME": "後壁", "stop_id": "TRD_070" }, "geometry": { "type": "Point", "coordinates": [ 120.36031034570405, 23.365909363195261, 0.0 ] } },
{ "type": "Feature", "properties": { "NAME": "水上（交通局）", "stop_id": "TRD_069" }, "geometry": { "type": "Point", "coordinates": [ 120.386808808988732, 23.413712050621996, 0.0 ] } },
{ "type": "Feature", "properties": { "NAME": "新營（交通局）", "stop_id": "TRD_071" }, "geometry": { "type": "Point", "coordinates": [ 120.323085062050623, 23.305871195311177, 0.0 ] } },
{ "type": "Feature", "properties": { "NAME": "林鳳營", "stop_id": "TRD_072" }, "geometry": { "type": "Point", "coordinates": [ 120.321048586154234, 23.242399539721475, 0.0 ] } },
{ "type": "Feature", "properties": { "NAME": "番子田（交通局）", "stop_id": "TRD_073" }, "geometry": { "type": "Point", "coordinates": [ 120.319172171688862, 23.192711002667117, 0.0 ] } },
{ "type": "Feature", "properties": { "NAME": "善化", "stop_id": "TRD_074" }, "geometry": { "type": "Point", "coordinates": [ 120.306534551235373, 23.13313912371154, 0.0 ] } },
{ "type": "Feature", "properties": { "NAME": "永康", "stop_id": "TRD_076" }, "geometry": { "type": "Point", "coordinates": [ 120.253575459185853, 23.038456153219766, 0.0 ] } },
{ "type": "Feature", "properties": { "NAME": "新市", "stop_id": "TRD_075" }, "geometry": { "type": "Point", "coordinates": [ 120.289725003021019, 23.067998156932617, 0.0 ] } },
{ "type": "Feature", "properties": { "NAME": "車路墘", "stop_id": "TRD_078" }, "geometry": { "type": "Point", "coordinates": [ 120.231670117446342, 22.932966123486093, 0.0 ] } },
{ "type": "Feature", "properties": { "NAME": "臺南", "stop_id": "TRD_077" }, "geometry": { "type": "Point", "coordinates": [ 120.212743875645515, 22.996882914415512, 0.0 ] } },
{ "type": "Feature", "properties": { "NAME": "大湖", "stop_id": "TRD_080" }, "geometry": { "type": "Point", "coordinates": [ 120.253555302466367, 22.878593136757406, 0.0 ] } },
{ "type": "Feature", "properties": { "NAME": "中洲（交通局）", "stop_id": "TRD_079" }, "geometry": { "type": "Point", "coordinates": [ 120.252586199462655, 22.903832647768724, 0.0 ] } },
{ "type": "Feature", "properties": { "NAME": "路竹", "stop_id": "TRD_081" }, "geometry": { "type": "Point", "coordinates": [ 120.266542685015409, 22.853768608467444, 0.0 ] } },
{ "type": "Feature", "properties": { "NAME": "橋子頭", "stop_id": "TRD_083" }, "geometry": { "type": "Point", "coordinates": [ 120.310678207765434, 22.760470986967398, 0.0 ] } },
{ "type": "Feature", "properties": { "NAME": "岡山", "stop_id": "TRD_082" }, "geometry": { "type": "Point", "coordinates": [ 120.296810216456421, 22.794025288678498, 0.0 ] } },
{ "type": "Feature", "properties": { "NAME": "楠梓", "stop_id": "TRD_084" }, "geometry": { "type": "Point", "coordinates": [ 120.323924847463957, 22.726934087543789, 0.0 ] } },
{ "type": "Feature", "properties": { "NAME": "舊城", "stop_id": "TRD_085" }, "geometry": { "type": "Point", "coordinates": [ 120.294929462239651, 22.675348894490988, 0.0 ] } },
{ "type": "Feature", "properties": { "NAME": "屏東（交通局）", "stop_id": "TRD_114" }, "geometry": { "type": "Point", "coordinates": [ 120.486012222170004, 22.669404433502127, 0.0 ] } },
{ "type": "Feature", "properties": { "NAME": "六塊厝", "stop_id": "TRD_113" }, "geometry": { "type": "Point", "coordinates": [ 120.464873795107692, 22.665681040597271, 0.0 ] } },
{ "type": "Feature", "properties": { "NAME": "鳳山（交通局）", "stop_id": "TRD_110" }, "geometry": { "type": "Point", "coordinates": [ 120.357313410776328, 22.631352954334545, 0.0 ] } },
{ "type": "Feature", "properties": { "NAME": "後庄", "stop_id": "TRD_111" }, "geometry": { "type": "Point", "coordinates": [ 120.39114968108467, 22.640737417019675, 0.0 ] } },
{ "type": "Feature", "properties": { "NAME": "九曲堂（交通局）", "stop_id": "TRD_112" }, "geometry": { "type": "Point", "coordinates": [ 120.421452080892706, 22.656510758102922, 0.0 ] } },
{ "type": "Feature", "properties": { "NAME": "竹田", "stop_id": "TRD_116" }, "geometry": { "type": "Point", "coordinates": [ 120.539886723359544, 22.585931032168325, 0.0 ] } },
{ "type": "Feature", "properties": { "NAME": "潮州（交通局）", "stop_id": "TRD_117" }, "geometry": { "type": "Point", "coordinates": [ 120.536243129300601, 22.549860906295461, 0.0 ] } },
{ "type": "Feature", "properties": { "NAME": "溪州（交通局）", "stop_id": "TRD_118" }, "geometry": { "type": "Point", "coordinates": [ 120.511922084653236, 22.491770697256509, 0.0 ] } },
{ "type": "Feature", "properties": { "NAME": "西勢", "stop_id": "TRD_115" }, "geometry": { "type": "Point", "coordinates": [ 120.526584088480163, 22.61632443345691, 0.0 ] } },
{ "type": "Feature", "properties": { "NAME": "二水", "stop_id": "TRD_062" }, "geometry": { "type": "Point", "coordinates": [ 120.618291537582508, 23.812894368268537, 0.0 ] } },
{ "type": "Feature", "properties": { "NAME": "花壇", "stop_id": "TRD_058" }, "geometry": { "type": "Point", "coordinates": [ 120.537043416963712, 24.024407131938247, 0.0 ] } },
{ "type": "Feature", "properties": { "NAME": "宜蘭", "stop_id": "TRD_103" }, "geometry": { "type": "Point", "coordinates": [ 121.758485718981788, 24.754646156666833, 0.0 ] } },
{ "type": "Feature", "properties": { "NAME": "汐止", "stop_id": "TRD_005" }, "geometry": { "type": "Point", "coordinates": [ 121.662909329066025, 25.069045433338541, 0.0 ] } },
{ "type": "Feature", "properties": { "NAME": "北臺北", "stop_id": "TRD_203" }, "geometry": { "type": "Point", "coordinates": [ 121.535537712526519, 25.0448146961002, 0.0 ] } },
{ "type": "Feature", "properties": { "NAME": "新起町", "stop_id": "TRD_202" }, "geometry": { "type": "Point", "coordinates": [ 121.50845813220306, 25.042213828961028, 0.0 ] } },
{ "type": "Feature", "properties": { "NAME": "江子翠", "stop_id": "TRD_201" }, "geometry": { "type": "Point", "coordinates": [ 121.481107750732903, 25.025539640779957, 0.0 ] } },
{ "type": "Feature", "properties": { "NAME": "浮洲", "stop_id": "TRD_200" }, "geometry": { "type": "Point", "coordinates": [ 121.447116182207395, 25.003790536733717, 0.0 ] } },
{ "type": "Feature", "properties": { "NAME": "五堵", "stop_id": "TRD_004" }, "geometry": { "type": "Point", "coordinates": [ 121.6680069564473, 25.077956427081308, 0.0 ] } },
{ "type": "Feature", "properties": { "NAME": "北五堵", "stop_id": "TRD_204" }, "geometry": { "type": "Point", "coordinates": [ 121.687769383154972, 25.079115368840533, 0.0 ] } },
{ "type": "Feature", "properties": { "NAME": "伯公岡", "stop_id": "TRD_019" }, "geometry": { "type": "Point", "coordinates": [ 121.082557862487462, 24.934695063631995, 0.0 ] } },
{ "type": "Feature", "properties": { "NAME": "三湖", "stop_id": "TRD_211" }, "geometry": { "type": "Point", "coordinates": [ 121.146288363126928, 24.914279077658811, 0.0 ] } },
{ "type": "Feature", "properties": { "NAME": "湖口", "stop_id": "TRD_020" }, "geometry": { "type": "Point", "coordinates": [ 121.044162569892208, 24.90304544576421, 0.0 ] } },
{ "type": "Feature", "properties": { "NAME": "波羅汶", "stop_id": "TRD_210" }, "geometry": { "type": "Point", "coordinates": [ 121.022458224499374, 24.889331898221482, 0.0 ] } },
{ "type": "Feature", "properties": { "NAME": "山崎", "stop_id": "TRD_021" }, "geometry": { "type": "Point", "coordinates": [ 120.998023962931782, 24.869643344127258, 0.0 ] } },
{ "type": "Feature", "properties": { "NAME": "斗崙", "stop_id": "TRD_209" }, "geometry": { "type": "Point", "coordinates": [ 121.00207082954887, 24.829007473178795, 0.0 ] } },
{ "type": "Feature", "properties": { "NAME": "香山坑", "stop_id": "TRD_208" }, "geometry": { "type": "Point", "coordinates": [ 120.927983244439574, 24.787088326975205, 0.0 ] } },
{ "type": "Feature", "properties": { "NAME": "內湖", "stop_id": "TRD_207" }, "geometry": { "type": "Point", "coordinates": [ 120.906110122233216, 24.746437522837365, 0.0 ] } },
{ "type": "Feature", "properties": { "NAME": "崎頂", "stop_id": "TRD_025" }, "geometry": { "type": "Point", "coordinates": [ 120.87207793988388, 24.722532778028988, 0.0 ] } },
{ "type": "Feature", "properties": { "NAME": "山寮", "stop_id": "TRD_206" }, "geometry": { "type": "Point", "coordinates": [ 120.875835023732535, 24.701569811901411, 0.0 ] } },
{ "type": "Feature", "properties": { "NAME": "尖山", "stop_id": "TRD_205" }, "geometry": { "type": "Point", "coordinates": [ 120.877652571262061, 24.663180543351707, 0.0 ] } },
{ "type": "Feature", "properties": { "NAME": "十六份", "stop_id": "TRD_049" }, "geometry": { "type": "Point", "coordinates": [ 120.781900742712764, 24.387927456011457, 0.0 ] } },
{ "type": "Feature", "properties": { "NAME": "老松町", "stop_id": "TRD_212" }, "geometry": { "type": "Point", "coordinates": [ 120.67554168298625, 24.132840821205463, 0.0 ] } },
{ "type": "Feature", "properties": { "NAME": "學田", "stop_id": "TRD_213" }, "geometry": { "type": "Point", "coordinates": [ 120.612361681585867, 24.109904526445447, 0.0 ] } },
{ "type": "Feature", "properties": { "NAME": "遊園地前", "stop_id": "TRD_214" }, "geometry": { "type": "Point", "coordinates": [ 120.598707396122293, 24.111433738719146, 0.0 ] } },
{ "type": "Feature", "properties": { "NAME": "大村", "stop_id": "TRD_216" }, "geometry": { "type": "Point", "coordinates": [ 120.559774772448009, 23.992143835906511, 0.0 ] } },
{ "type": "Feature", "properties": { "NAME": "永靖", "stop_id": "TRD_215" }, "geometry": { "type": "Point", "coordinates": [ 120.573003844315792, 23.927348067296844, 0.0 ] } },
{ "type": "Feature", "properties": { "NAME": "東門町", "stop_id": "TRD_219" }, "geometry": { "type": "Point", "coordinates": [ 120.211917157166013, 22.989234706325149, 0.0 ] } },
{ "type": "Feature", "properties": { "NAME": "試驗所前", "stop_id": "TRD_218" }, "geometry": { "type": "Point", "coordinates": [ 120.217248195391932, 22.963949205243598, 0.0 ] } },
{ "type": "Feature", "properties": { "NAME": "三塊厝（交通局）", "stop_id": "TRD_109" }, "geometry": { "type": "Point", "coordinates": [ 120.293621227595906, 22.638744756852244, 0.0 ] } },
{ "type": "Feature", "properties": { "NAME": "高雄", "stop_id": "TRD_086" }, "geometry": { "type": "Point", "coordinates": [ 120.275671968967828, 22.620972544867978, 0.0 ] } },
{ "type": "Feature", "properties": { "NAME": "山下町", "stop_id": "TRD_217" }, "geometry": { "type": "Point", "coordinates": [ 120.278725695340782, 22.626045789300296, 0.0 ] } },
{ "type": "Feature", "properties": { "NAME": "四脚亭", "stop_id": "TRD_088" }, "geometry": { "type": "Point", "coordinates": [ 121.762294881585504, 25.102658762669485, 0.0 ] } },
{ "type": "Feature", "properties": { "NAME": "瑞芳", "stop_id": "TRD_089" }, "geometry": { "type": "Point", "coordinates": [ 121.806746273144398, 25.108865281972509, 0.0 ] } },
{ "type": "Feature", "properties": { "NAME": "猴硐", "stop_id": "TRD_090" }, "geometry": { "type": "Point", "coordinates": [ 121.827691446684867, 25.087243226868203, 0.0 ] } },
{ "type": "Feature", "properties": { "NAME": "三貂嶺", "stop_id": "TRD_091" }, "geometry": { "type": "Point", "coordinates": [ 121.822946579094761, 25.065345279247161, 0.0 ] } },
{ "type": "Feature", "properties": { "NAME": "武丹坑", "stop_id": "TRD_092" }, "geometry": { "type": "Point", "coordinates": [ 121.852162289191554, 25.060189394554552, 0.0 ] } },
{ "type": "Feature", "properties": { "NAME": "頂雙溪", "stop_id": "TRD_093" }, "geometry": { "type": "Point", "coordinates": [ 121.867281410449152, 25.038776023015185, 0.0 ] } },
{ "type": "Feature", "properties": { "NAME": "貢寮庄", "stop_id": "TRD_094" }, "geometry": { "type": "Point", "coordinates": [ 121.908610619256393, 25.02187618175051, 0.0 ] } },
{ "type": "Feature", "properties": { "NAME": "澳底", "stop_id": "TRD_095" }, "geometry": { "type": "Point", "coordinates": [ 121.944706583946896, 25.015734948637935, 0.0 ] } },
{ "type": "Feature", "properties": { "NAME": "龜山", "stop_id": "TRD_098" }, "geometry": { "type": "Point", "coordinates": [ 121.867738152379701, 24.904758423118064, 0.0 ] } },
{ "type": "Feature", "properties": { "NAME": "十分寮", "stop_id": "TRD_119" }, "geometry": { "type": "Point", "coordinates": [ 121.777002868735934, 25.043172440499763, 0.0 ] } },
{ "type": "Feature", "properties": { "NAME": "嶺脚寮", "stop_id": "TRD_120" }, "geometry": { "type": "Point", "coordinates": [ 121.747807409762217, 25.030104324850441, 0.0 ] } },
{ "type": "Feature", "properties": { "NAME": "石底", "stop_id": "TRD_121" }, "geometry": { "type": "Point", "coordinates": [ 121.738814552367856, 25.025762302362459, 0.0 ] } },
{ "type": "Feature", "properties": { "NAME": "菁桐坑", "stop_id": "TRD_122" }, "geometry": { "type": "Point", "coordinates": [ 121.72381020831611, 25.024378674965732, 0.0 ] } },
{ "type": "Feature", "properties": { "NAME": "鼻仔頭", "stop_id": "TRD_134" }, "geometry": { "type": "Point", "coordinates": [ 120.642368535795825, 23.798413144307297, 0.0 ] } },
{ "type": "Feature", "properties": { "NAME": "濁水（交通局）", "stop_id": "TRD_135" }, "geometry": { "type": "Point", "coordinates": [ 120.704591813413273, 23.834078038896937, 0.0 ] } },
{ "type": "Feature", "properties": { "NAME": "隘寮", "stop_id": "TRD_136" }, "geometry": { "type": "Point", "coordinates": [ 120.750307758172241, 23.834839548881799, 0.0 ] } },
{ "type": "Feature", "properties": { "NAME": "集集", "stop_id": "TRD_137" }, "geometry": { "type": "Point", "coordinates": [ 120.784988714411838, 23.826037018567281, 0.0 ] } },
{ "type": "Feature", "properties": { "NAME": "水裡坑", "stop_id": "TRD_138" }, "geometry": { "type": "Point", "coordinates": [ 120.853445378617991, 23.8182027094185, 0.0 ] } },
{ "type": "Feature", "properties": { "NAME": "外車埕", "stop_id": "TRD_139" }, "geometry": { "type": "Point", "coordinates": [ 120.866662747473626, 23.832902353724283, 0.0 ] } },
{ "type": "Feature", "properties": { "NAME": "竹圍（交通局）", "stop_id": "TRD_132" }, "geometry": { "type": "Point", "coordinates": [ 121.459548519527317, 25.135885382276669, 0.0 ] } },
{ "type": "Feature", "properties": { "NAME": "花蓮港（交通局）", "stop_id": "TRD_300" }, "geometry": { "type": "Point", "coordinates": [ 121.61113043299224, 23.973892423308722, 0.0 ] } },
{ "type": "Feature", "properties": { "NAME": "田浦", "stop_id": "TRD_301" }, "geometry": { "type": "Point", "coordinates": [ 121.591663945330851, 23.973779353304021, 0.0 ] } },
{ "type": "Feature", "properties": { "NAME": "吉野", "stop_id": "TRD_302" }, "geometry": { "type": "Point", "coordinates": [ 121.573050557028822, 23.961010149390585, 0.0 ] } },
{ "type": "Feature", "properties": { "NAME": "初音", "stop_id": "TRD_303" }, "geometry": { "type": "Point", "coordinates": [ 121.54536085921913, 23.94227917706052, 0.0 ] } },
{ "type": "Feature", "properties": { "NAME": "賀田", "stop_id": "TRD_304" }, "geometry": { "type": "Point", "coordinates": [ 121.529318058671961, 23.907785962879558, 0.0 ] } },
{ "type": "Feature", "properties": { "NAME": "壽", "stop_id": "TRD_306" }, "geometry": { "type": "Point", "coordinates": [ 121.511046091922623, 23.869026658579305, 0.0 ] } },
{ "type": "Feature", "properties": { "NAME": "豐田", "stop_id": "TRD_307" }, "geometry": { "type": "Point", "coordinates": [ 121.496333713489591, 23.848632724092294, 0.0 ] } },
{ "type": "Feature", "properties": { "NAME": "溪口（交通局）", "stop_id": "TRD_308" }, "geometry": { "type": "Point", "coordinates": [ 121.472879772146726, 23.817405615878059, 0.0 ] } },
{ "type": "Feature", "properties": { "NAME": "平林", "stop_id": "TRD_309" }, "geometry": { "type": "Point", "coordinates": [ 121.451566114424409, 23.802995838458138, 0.0 ] } },
{ "type": "Feature", "properties": { "NAME": "林田", "stop_id": "TRD_310" }, "geometry": { "type": "Point", "coordinates": [ 121.457783128751203, 23.782457463751076, 0.0 ] } },
{ "type": "Feature", "properties": { "NAME": "鳳林", "stop_id": "TRD_311" }, "geometry": { "type": "Point", "coordinates": [ 121.446470201042004, 23.746296326783256, 0.0 ] } },
{ "type": "Feature", "properties": { "NAME": "萬里橋", "stop_id": "TRD_312" }, "geometry": { "type": "Point", "coordinates": [ 121.418950147552721, 23.712124817876159, 0.0 ] } },
{ "type": "Feature", "properties": { "NAME": "上大和", "stop_id": "TRD_313" }, "geometry": { "type": "Point", "coordinates": [ 121.42119656078566, 23.666371243691131, 0.0 ] } },
{ "type": "Feature", "properties": { "NAME": "大和", "stop_id": "TRD_314" }, "geometry": { "type": "Point", "coordinates": [ 121.389102943697537, 23.605568715013522, 0.0 ] } },
{ "type": "Feature", "properties": { "NAME": "白川", "stop_id": "TRD_315" }, "geometry": { "type": "Point", "coordinates": [ 121.379690402270825, 23.580318894640143, 0.0 ] } },
{ "type": "Feature", "properties": { "NAME": "瑞穗", "stop_id": "TRD_316" }, "geometry": { "type": "Point", "coordinates": [ 121.37681225004971, 23.497434765505002, 0.0 ] } },
{ "type": "Feature", "properties": { "NAME": "三笠", "stop_id": "TRD_317" }, "geometry": { "type": "Point", "coordinates": [ 121.345266953739156, 23.424925481007218, 0.0 ] } },
{ "type": "Feature", "properties": { "NAME": "末廣", "stop_id": "TRD_318" }, "geometry": { "type": "Point", "coordinates": [ 121.326889194043801, 23.380842690495928, 0.0 ] } },
{ "type": "Feature", "properties": { "NAME": "玉里", "stop_id": "TRD_319" }, "geometry": { "type": "Point", "coordinates": [ 121.31183048851652, 23.332313673537829, 0.0 ] } },
{ "type": "Feature", "properties": { "NAME": "安通", "stop_id": "TRD_320" }, "geometry": { "type": "Point", "coordinates": [ 121.3336677790209, 23.303998357402765, 0.0 ] } },
{ "type": "Feature", "properties": { "NAME": "東部大里", "stop_id": "TRD_321" }, "geometry": { "type": "Point", "coordinates": [ 121.307076591354658, 23.270919131715448, 0.0 ] } },
{ "type": "Feature", "properties": { "NAME": "東部竹田", "stop_id": "TRD_322" }, "geometry": { "type": "Point", "coordinates": [ 121.277950272878812, 23.225920457776493, 0.0 ] } },
{ "type": "Feature", "properties": { "NAME": "富里", "stop_id": "TRD_323" }, "geometry": { "type": "Point", "coordinates": [ 121.248579648641396, 23.179303836996976, 0.0 ] } },
{ "type": "Feature", "properties": { "NAME": "池上", "stop_id": "TRD_324" }, "geometry": { "type": "Point", "coordinates": [ 121.219343411603987, 23.126347431483222, 0.0 ] } },
{ "type": "Feature", "properties": { "NAME": "新武呂", "stop_id": "TRD_325" }, "geometry": { "type": "Point", "coordinates": [ 121.176954314341458, 23.10279916475444, 0.0 ] } },
{ "type": "Feature", "properties": { "NAME": "關山", "stop_id": "TRD_326" }, "geometry": { "type": "Point", "coordinates": [ 121.164909120724587, 23.046838469218326, 0.0 ] } },
{ "type": "Feature", "properties": { "NAME": "月野", "stop_id": "TRD_327" }, "geometry": { "type": "Point", "coordinates": [ 121.151033922625388, 23.010609308335361, 0.0 ] } },
{ "type": "Feature", "properties": { "NAME": "大原", "stop_id": "TRD_329" }, "geometry": { "type": "Point", "coordinates": [ 121.159044029772616, 22.95562597152334, 0.0 ] } },
{ "type": "Feature", "properties": { "NAME": "大埔（交通局）", "stop_id": "TRD_328" }, "geometry": { "type": "Point", "coordinates": [ 121.153820812893528, 22.982697337385044, 0.0 ] } },
{ "type": "Feature", "properties": { "NAME": "鹿野", "stop_id": "TRD_330" }, "geometry": { "type": "Point", "coordinates": [ 121.137346146220366, 22.912144535057433, 0.0 ] } },
{ "type": "Feature", "properties": { "NAME": "稻葉", "stop_id": "TRD_331" }, "geometry": { "type": "Point", "coordinates": [ 121.128226654003285, 22.881164876680746, 0.0 ] } },
{ "type": "Feature", "properties": { "NAME": "初鹿", "stop_id": "TRD_332" }, "geometry": { "type": "Point", "coordinates": [ 121.092674009611827, 22.860640013088439, 0.0 ] } },
{ "type": "Feature", "properties": { "NAME": "馬蘭", "stop_id": "TRD_334" }, "geometry": { "type": "Point", "coordinates": [ 121.129169001532844, 22.765716870463116, 0.0 ] } },
{ "type": "Feature", "properties": { "NAME": "臺東（交通局）", "stop_id": "TRD_335" }, "geometry": { "type": "Point", "coordinates": [ 121.147720518565052, 22.751741466639761, 0.0 ] } },
{ "type": "Feature", "properties": { "NAME": "日奈敷", "stop_id": "TRD_333" }, "geometry": { "type": "Point", "coordinates": [ 121.09282677630226, 22.808663877304056, 0.0 ] } },
{ "type": "Feature", "properties": { "NAME": "嘉義（營林所）", "stop_id": "TFO_017" }, "geometry": { "type": "Point", "coordinates": [ 120.441868722000095, 23.479795358000047, 0.0 ] } },
{ "type": "Feature", "properties": { "NAME": "北門", "stop_id": "TFO_015" }, "geometry": { "type": "Point", "coordinates": [ 120.454643040000065, 23.487780857000075, 0.0 ] } },
{ "type": "Feature", "properties": { "NAME": "榮町", "stop_id": "TFO_016" }, "geometry": { "type": "Point", "coordinates": [ 120.447301879000065, 23.484014519000027, 0.0 ] } },
{ "type": "Feature", "properties": { "NAME": "盧厝", "stop_id": "TFO_014" }, "geometry": { "type": "Point", "coordinates": [ 120.466699800000015, 23.490257389000078, 0.0 ] } },
{ "type": "Feature", "properties": { "NAME": "灣橋", "stop_id": "TFO_012" }, "geometry": { "type": "Point", "coordinates": [ 120.504790354000079, 23.490547979000041, 0.0 ] } },
{ "type": "Feature", "properties": { "NAME": "崎下", "stop_id": "TFO_013" }, "geometry": { "type": "Point", "coordinates": [ 120.486293601000057, 23.493711094000048, 0.0 ] } },
{ "type": "Feature", "properties": { "NAME": "朴子埔", "stop_id": "TFO_011" }, "geometry": { "type": "Point", "coordinates": [ 120.518603441000096, 23.491572725000026, 0.0 ] } },
{ "type": "Feature", "properties": { "NAME": "鹿麻產", "stop_id": "TFO_010" }, "geometry": { "type": "Point", "coordinates": [ 120.531430212000032, 23.504254886000069, 0.0 ] } },
{ "type": "Feature", "properties": { "NAME": "竹崎", "stop_id": "TFO_008" }, "geometry": { "type": "Point", "coordinates": [ 120.553696652000099, 23.525422364000065, 0.0 ] } },
{ "type": "Feature", "properties": { "NAME": "新竹崎", "stop_id": "TFO_009" }, "geometry": { "type": "Point", "coordinates": [ 120.549489066000092, 23.521903723000037, 0.0 ] } },
{ "type": "Feature", "properties": { "NAME": "交力坪", "stop_id": "TFO_007" }, "geometry": { "type": "Point", "coordinates": [ 120.64404719242124, 23.532423994482063, 0.0 ] } },
{ "type": "Feature", "properties": { "NAME": "奮起湖", "stop_id": "TFO_006" }, "geometry": { "type": "Point", "coordinates": [ 120.695993152000028, 23.506419202000075, 0.0 ] } },
{ "type": "Feature", "properties": { "NAME": "十字路", "stop_id": "TFO_005" }, "geometry": { "type": "Point", "coordinates": [ 120.756185376948011, 23.49253562742442, 0.0 ] } },
{ "type": "Feature", "properties": { "NAME": "二萬平", "stop_id": "TFO_004" }, "geometry": { "type": "Point", "coordinates": [ 120.78956249872175, 23.509055186126243, 0.0 ] } },
{ "type": "Feature", "properties": { "NAME": "阿里山", "stop_id": "TFO_003" }, "geometry": { "type": "Point", "coordinates": [ 120.813791134000098, 23.515356377000046, 0.0 ] } },
{ "type": "Feature", "properties": { "NAME": "兒玉", "stop_id": "TFO_002" }, "geometry": { "type": "Point", "coordinates": [ 120.830383268000105, 23.483356745000037, 0.0 ] } },
{ "type": "Feature", "properties": { "NAME": "新高口", "stop_id": "TFO_001" }, "geometry": { "type": "Point", "coordinates": [ 120.845934109000041, 23.473478087000046, 0.0 ] } },
{ "type": "Feature", "properties": { "NAME": "洲子", "stop_id": "TWS_005" }, "geometry": { "type": "Point", "coordinates": [ 120.441470463476563, 22.7128150523546, 0.0 ] } },
{ "type": "Feature", "properties": { "NAME": "溪埔", "stop_id": "TWS_006" }, "geometry": { "type": "Point", "coordinates": [ 120.445059323610693, 22.727383594588147, 0.0 ] } },
{ "type": "Feature", "properties": { "NAME": "嶺口", "stop_id": "TWS_009" }, "geometry": { "type": "Point", "coordinates": [ 120.450486057820171, 22.773452065172233, 0.0 ] } },
{ "type": "Feature", "properties": { "NAME": "溪州（臺灣製糖）", "stop_id": "TWS_012" }, "geometry": { "type": "Point", "coordinates": [ 120.464453860560653, 22.842234673983302, 0.0 ] } },
{ "type": "Feature", "properties": { "NAME": "旗山", "stop_id": "TWS_016" }, "geometry": { "type": "Point", "coordinates": [ 120.481901451242535, 22.884350082924474, 0.0 ] } },
{ "type": "Feature", "properties": { "NAME": "旗尾", "stop_id": "TWS_018" }, "geometry": { "type": "Point", "coordinates": [ 120.492246133627148, 22.881559203063127, 0.0 ] } },
{ "type": "Feature", "properties": { "NAME": "中坛", "stop_id": "TWS_019" }, "geometry": { "type": "Point", "coordinates": [ 120.515250062383757, 22.885896698520444, 0.0 ] } },
{ "type": "Feature", "properties": { "NAME": "牛埔", "stop_id": "TWS_020" }, "geometry": { "type": "Point", "coordinates": [ 120.52086556280139, 22.897721394271162, 0.0 ] } },
{ "type": "Feature", "properties": { "NAME": "美濃", "stop_id": "TWS_021" }, "geometry": { "type": "Point", "coordinates": [ 120.540192020659234, 22.902178618357368, 0.0 ] } },
{ "type": "Feature", "properties": { "NAME": "竹頭角", "stop_id": "TWS_023" }, "geometry": { "type": "Point", "coordinates": [ 120.565711191877739, 22.91346371281022, 0.0 ] } },
{ "type": "Feature", "properties": { "NAME": "大樹", "stop_id": "TWS_004" }, "geometry": { "type": "Point", "coordinates": [ 120.432310190369947, 22.692501250201719, 0.0 ] } },
{ "type": "Feature", "properties": { "NAME": "龍目", "stop_id": "TWS_003" }, "geometry": { "type": "Point", "coordinates": [ 120.416049154032351, 22.686361995653172, 0.0 ] } },
{ "type": "Feature", "properties": { "NAME": "九曲堂（臺灣製糖）", "stop_id": "TWS_001" }, "geometry": { "type": "Point", "coordinates": [ 120.421021036828947, 22.656896815926277, 0.0 ] } },
{ "type": "Feature", "properties": { "NAME": "林子邊", "stop_id": "SHS_009" }, "geometry": { "type": "Point", "coordinates": [ 120.396259947218937, 22.505150802589757, 0.0 ] } },
{ "type": "Feature", "properties": { "NAME": "潭頭", "stop_id": "SHS_008" }, "geometry": { "type": "Point", "coordinates": [ 120.401823381933553, 22.523686561137854, 0.0 ] } },
{ "type": "Feature", "properties": { "NAME": "赤崁", "stop_id": "SHS_007" }, "geometry": { "type": "Point", "coordinates": [ 120.409622259491712, 22.540432408992668, 0.0 ] } },
{ "type": "Feature", "properties": { "NAME": "潮州寮", "stop_id": "SHS_006" }, "geometry": { "type": "Point", "coordinates": [ 120.419598267518722, 22.569086018431364, 0.0 ] } },
{ "type": "Feature", "properties": { "NAME": "大寮", "stop_id": "SHS_005" }, "geometry": { "type": "Point", "coordinates": [ 120.419510844338177, 22.592155969186237, 0.0 ] } },
{ "type": "Feature", "properties": { "NAME": "會社", "stop_id": "SHS_004" }, "geometry": { "type": "Point", "coordinates": [ 120.398357160361485, 22.602298880462612, 0.0 ] } },
{ "type": "Feature", "properties": { "NAME": "山子頂", "stop_id": "SHS_003" }, "geometry": { "type": "Point", "coordinates": [ 120.39305459925103, 22.610642059770143, 0.0 ] } },
{ "type": "Feature", "properties": { "NAME": "電信所", "stop_id": "SHS_002" }, "geometry": { "type": "Point", "coordinates": [ 120.374387102396668, 22.626432814575026, 0.0 ] } },
{ "type": "Feature", "properties": { "NAME": "西門", "stop_id": "TWS_035" }, "geometry": { "type": "Point", "coordinates": [ 120.353395133672691, 22.625206258229468, 0.0 ] } },
{ "type": "Feature", "properties": { "NAME": "工場（鳳山・工場間）", "stop_id": "TWS_036" }, "geometry": { "type": "Point", "coordinates": [ 120.342770755971259, 22.563096859176952, 0.0 ] } },
{ "type": "Feature", "properties": { "NAME": "工場（屏東・里港間）", "stop_id": "TWS_025" }, "geometry": { "type": "Point", "coordinates": [ 120.489186807446927, 22.663419010766919, 0.0 ] } },
{ "type": "Feature", "properties": { "NAME": "北勢頭（臺灣製糖）", "stop_id": "TWS_026" }, "geometry": { "type": "Point", "coordinates": [ 120.49224070749132, 22.681962520930988, 0.0 ] } },
{ "type": "Feature", "properties": { "NAME": "崇蘭", "stop_id": "TWS_027" }, "geometry": { "type": "Point", "coordinates": [ 120.489433921474259, 22.695499040377715, 0.0 ] } },
{ "type": "Feature", "properties": { "NAME": "下冷水坑", "stop_id": "TWS_028" }, "geometry": { "type": "Point", "coordinates": [ 120.489508105829159, 22.717047857446289, 0.0 ] } },
{ "type": "Feature", "properties": { "NAME": "九塊", "stop_id": "TWS_029" }, "geometry": { "type": "Point", "coordinates": [ 120.489591095366535, 22.733273277037714, 0.0 ] } },
{ "type": "Feature", "properties": { "NAME": "大邱園", "stop_id": "TWS_030" }, "geometry": { "type": "Point", "coordinates": [ 120.480676699968853, 22.743054557894311, 0.0 ] } },
{ "type": "Feature", "properties": { "NAME": "搭樓", "stop_id": "TWS_031" }, "geometry": { "type": "Point", "coordinates": [ 120.479913986945206, 22.764583343475838, 0.0 ] } },
{ "type": "Feature", "properties": { "NAME": "里港", "stop_id": "TWS_032" }, "geometry": { "type": "Point", "coordinates": [ 120.495481745817074, 22.773082377092884, 0.0 ] } },
{ "type": "Feature", "properties": { "NAME": "二重港", "stop_id": "MJS_047" }, "geometry": { "type": "Point", "coordinates": [ 120.142965331378022, 23.242177422951759, 0.0 ] } },
{ "type": "Feature", "properties": { "NAME": "中洲（明治製糖）", "stop_id": "MJS_046" }, "geometry": { "type": "Point", "coordinates": [ 120.158469627933059, 23.240762354823804, 0.0 ] } },
{ "type": "Feature", "properties": { "NAME": "學甲", "stop_id": "MJS_045" }, "geometry": { "type": "Point", "coordinates": [ 120.185084601912777, 23.239127941134573, 0.0 ] } },
{ "type": "Feature", "properties": { "NAME": "佳里興", "stop_id": "MJS_043" }, "geometry": { "type": "Point", "coordinates": [ 120.185082044146384, 23.196588167535772, 0.0 ] } },
{ "type": "Feature", "properties": { "NAME": "佳里", "stop_id": "MJS_042" }, "geometry": { "type": "Point", "coordinates": [ 120.177711996179028, 23.173394031491839, 0.0 ] } },
{ "type": "Feature", "properties": { "NAME": "子良廟", "stop_id": "MJS_041" }, "geometry": { "type": "Point", "coordinates": [ 120.21609513264039, 23.175712614689697, 0.0 ] } },
{ "type": "Feature", "properties": { "NAME": "麻豆", "stop_id": "MJS_038" }, "geometry": { "type": "Point", "coordinates": [ 120.253664894868479, 23.175732324500277, 0.0 ] } },
{ "type": "Feature", "properties": { "NAME": "本社前", "stop_id": "MJS_037" }, "geometry": { "type": "Point", "coordinates": [ 120.268073061891926, 23.183800664605148, 0.0 ] } },
{ "type": "Feature", "properties": { "NAME": "寮子廊", "stop_id": "MJS_036" }, "geometry": { "type": "Point", "coordinates": [ 120.284449769225048, 23.190592561008671, 0.0 ] } },
{ "type": "Feature", "properties": { "NAME": "番子田（明治製糖）", "stop_id": "MJS_034" }, "geometry": { "type": "Point", "coordinates": [ 120.318835753198471, 23.191986119482387, 0.0 ] } },
{ "type": "Feature", "properties": { "NAME": "布袋", "stop_id": "ESS_025" }, "geometry": { "type": "Point", "coordinates": [ 120.170727626194733, 23.382811660404077, 0.0 ] } },
{ "type": "Feature", "properties": { "NAME": "前東港", "stop_id": "ESS_024" }, "geometry": { "type": "Point", "coordinates": [ 120.192303043832325, 23.381840143592328, 0.0 ] } },
{ "type": "Feature", "properties": { "NAME": "義竹", "stop_id": "ESS_022" }, "geometry": { "type": "Point", "coordinates": [ 120.249594576498609, 23.339336187078572, 0.0 ] } },
{ "type": "Feature", "properties": { "NAME": "安溪寮", "stop_id": "ESS_023" }, "geometry": { "type": "Point", "coordinates": [ 120.219401111168608, 23.357322685608111, 0.0 ] } },
{ "type": "Feature", "properties": { "NAME": "岸內", "stop_id": "ESS_021" }, "geometry": { "type": "Point", "coordinates": [ 120.261082805810204, 23.330839377892364, 0.0 ] } },
{ "type": "Feature", "properties": { "NAME": "鹽水", "stop_id": "ESS_020" }, "geometry": { "type": "Point", "coordinates": [ 120.262792908534649, 23.321799488952905, 0.0 ] } },
{ "type": "Feature", "properties": { "NAME": "太子宮", "stop_id": "ESS_018" }, "geometry": { "type": "Point", "coordinates": [ 120.273055487000235, 23.299973666685212, 0.0 ] } },
{ "type": "Feature", "properties": { "NAME": "工場前", "stop_id": "ESS_017" }, "geometry": { "type": "Point", "coordinates": [ 120.317777819943274, 23.301138467430754, 0.0 ] } },
{ "type": "Feature", "properties": { "NAME": "新營（鹽水港製糖）", "stop_id": "ESS_016" }, "geometry": { "type": "Point", "coordinates": [ 120.322516712250888, 23.305509318374892, 0.0 ] } },
{ "type": "Feature", "properties": { "NAME": "市場前", "stop_id": "TKS_002" }, "geometry": { "type": "Point", "coordinates": [ 120.690699822618654, 24.136166809431739, 0.0 ] } },
{ "type": "Feature", "properties": { "NAME": "太平", "stop_id": "TKS_003" }, "geometry": { "type": "Point", "coordinates": [ 120.714338160445934, 24.12394552954061, 0.0 ] } },
{ "type": "Feature", "properties": { "NAME": "車籠埔", "stop_id": "TKS_004" }, "geometry": { "type": "Point", "coordinates": [ 120.724347075876949, 24.106540448235116, 0.0 ] } },
{ "type": "Feature", "properties": { "NAME": "番子寮", "stop_id": "TKS_005" }, "geometry": { "type": "Point", "coordinates": [ 120.716242532815087, 24.094560289480452, 0.0 ] } },
{ "type": "Feature", "properties": { "NAME": "塗城", "stop_id": "TKS_006" }, "geometry": { "type": "Point", "coordinates": [ 120.709501278295747, 24.088574957584385, 0.0 ] } },
{ "type": "Feature", "properties": { "NAME": "北溝", "stop_id": "TKS_007" }, "geometry": { "type": "Point", "coordinates": [ 120.708303413192525, 24.077257461119423, 0.0 ] } },
{ "type": "Feature", "properties": { "NAME": "霧峰", "stop_id": "TKS_008" }, "geometry": { "type": "Point", "coordinates": [ 120.698080820476989, 24.065028778131484, 0.0 ] } },
{ "type": "Feature", "properties": { "NAME": "六股", "stop_id": "TKS_009" }, "geometry": { "type": "Point", "coordinates": [ 120.690868743932782, 24.040469411386152, 0.0 ] } },
{ "type": "Feature", "properties": { "NAME": "舊社", "stop_id": "TKS_011" }, "geometry": { "type": "Point", "coordinates": [ 120.695342922013893, 24.019482420909263, 0.0 ] } },
{ "type": "Feature", "properties": { "NAME": "新庄", "stop_id": "TKS_013" }, "geometry": { "type": "Point", "coordinates": [ 120.687775997833569, 23.993601826840735, 0.0 ] } },
{ "type": "Feature", "properties": { "NAME": "草屯", "stop_id": "TKS_014" }, "geometry": { "type": "Point", "coordinates": [ 120.682346540068508, 23.979048579269133, 0.0 ] } },
{ "type": "Feature", "properties": { "NAME": "林子頭", "stop_id": "TKS_015" }, "geometry": { "type": "Point", "coordinates": [ 120.681043299106818, 23.964960601420877, 0.0 ] } },
{ "type": "Feature", "properties": { "NAME": "營磐口", "stop_id": "TKS_016" }, "geometry": { "type": "Point", "coordinates": [ 120.671646613512408, 23.947203751823135, 0.0 ] } },
{ "type": "Feature", "properties": { "NAME": "林庄", "stop_id": "TKS_017" }, "geometry": { "type": "Point", "coordinates": [ 120.6739818652146, 23.935699595905664, 0.0 ] } },
{ "type": "Feature", "properties": { "NAME": "半山", "stop_id": "TKS_018" }, "geometry": { "type": "Point", "coordinates": [ 120.679511260161433, 23.92848473508538, 0.0 ] } },
{ "type": "Feature", "properties": { "NAME": "南投（帝國製糖）", "stop_id": "TKS_019" }, "geometry": { "type": "Point", "coordinates": [ 120.690156348987998, 23.909982629497684, 0.0 ] } },
{ "type": "Feature", "properties": { "NAME": "南投（明治製糖）", "stop_id": "MJS_001" }, "geometry": { "type": "Point", "coordinates": [ 120.689329126875805, 23.904721620219373, 0.0 ] } },
{ "type": "Feature", "properties": { "NAME": "新街（明治製糖）", "stop_id": "MJS_056" }, "geometry": { "type": "Point", "coordinates": [ 120.691312053430565, 23.878860701267577, 0.0 ] } },
{ "type": "Feature", "properties": { "NAME": "名間", "stop_id": "MJS_055" }, "geometry": { "type": "Point", "coordinates": [ 120.701542286144218, 23.837712321187503, 0.0 ] } },
{ "type": "Feature", "properties": { "NAME": "二林", "stop_id": "ESS_015" }, "geometry": { "type": "Point", "coordinates": [ 120.368637898117143, 23.897557422643878, 0.0 ] } },
{ "type": "Feature", "properties": { "NAME": "番子田（鹽水港製糖）", "stop_id": "ESS_014" }, "geometry": { "type": "Point", "coordinates": [ 120.377200058227984, 23.872522284229873, 0.0 ] } },
{ "type": "Feature", "properties": { "NAME": "外蘆竹", "stop_id": "ESS_013" }, "geometry": { "type": "Point", "coordinates": [ 120.390361667322068, 23.86655706795246, 0.0 ] } },
{ "type": "Feature", "properties": { "NAME": "竹塘", "stop_id": "ESS_011" }, "geometry": { "type": "Point", "coordinates": [ 120.425673501494444, 23.859056799843955, 0.0 ] } },
{ "type": "Feature", "properties": { "NAME": "路口厝", "stop_id": "ESS_009" }, "geometry": { "type": "Point", "coordinates": [ 120.45702763332379, 23.848876755833853, 0.0 ] } },
{ "type": "Feature", "properties": { "NAME": "溪州（鹽水港製糖）", "stop_id": "ESS_008" }, "geometry": { "type": "Point", "coordinates": [ 120.492742760389291, 23.851041078737175, 0.0 ] } },
{ "type": "Feature", "properties": { "NAME": "北斗", "stop_id": "ESS_006" }, "geometry": { "type": "Point", "coordinates": [ 120.51786435718472, 23.878034009299601, 0.0 ] } },
{ "type": "Feature", "properties": { "NAME": "田尾（鹽水港製糖）", "stop_id": "ESS_005" }, "geometry": { "type": "Point", "coordinates": [ 120.52519703190687, 23.891266917164273, 0.0 ] } },
{ "type": "Feature", "properties": { "NAME": "鎮平", "stop_id": "ESS_004" }, "geometry": { "type": "Point", "coordinates": [ 120.552274591516721, 23.886655357224374, 0.0 ] } },
{ "type": "Feature", "properties": { "NAME": "外三", "stop_id": "ESS_003" }, "geometry": { "type": "Point", "coordinates": [ 120.565521497713206, 23.880100497442278, 0.0 ] } },
{ "type": "Feature", "properties": { "NAME": "田中（鹽水港製糖）", "stop_id": "ESS_001" }, "geometry": { "type": "Point", "coordinates": [ 120.590174920294999, 23.858440655640536, 0.0 ] } },
{ "type": "Feature", "properties": { "NAME": "斗六（大日本製糖）", "stop_id": "DNS_066" }, "geometry": { "type": "Point", "coordinates": [ 120.540759403721879, 23.711391193131711, 0.0 ] } },
{ "type": "Feature", "properties": { "NAME": "大崙（大日本製糖）", "stop_id": "DNS_067" }, "geometry": { "type": "Point", "coordinates": [ 120.537644849992091, 23.678037249228574, 0.0 ] } },
{ "type": "Feature", "properties": { "NAME": "湳子", "stop_id": "DNS_068" }, "geometry": { "type": "Point", "coordinates": [ 120.542958889558548, 23.651713719279709, 0.0 ] } },
{ "type": "Feature", "properties": { "NAME": "古坑", "stop_id": "DNS_069" }, "geometry": { "type": "Point", "coordinates": [ 120.560792345674599, 23.64239054951781, 0.0 ] } },
{ "type": "Feature", "properties": { "NAME": "崁頭厝", "stop_id": "DNS_070" }, "geometry": { "type": "Point", "coordinates": [ 120.551752073243222, 23.628692924961005, 0.0 ] } },
{ "type": "Feature", "properties": { "NAME": "大林（大日本製糖）", "stop_id": "DNS_060" }, "geometry": { "type": "Point", "coordinates": [ 120.455136617753652, 23.600625635755488, 0.0 ] } },
{ "type": "Feature", "properties": { "NAME": "會社前", "stop_id": "DNS_059" }, "geometry": { "type": "Point", "coordinates": [ 120.456130154976549, 23.613293613733767, 0.0 ] } },
{ "type": "Feature", "properties": { "NAME": "太湖", "stop_id": "DNS_058" }, "geometry": { "type": "Point", "coordinates": [ 120.452725937905939, 23.620511360391056, 0.0 ] } },
{ "type": "Feature", "properties": { "NAME": "潭墘", "stop_id": "DNS_057" }, "geometry": { "type": "Point", "coordinates": [ 120.466801812008185, 23.628992625665187, 0.0 ] } },
{ "type": "Feature", "properties": { "NAME": "大埔（大日本製糖）", "stop_id": "DNS_055" }, "geometry": { "type": "Point", "coordinates": [ 120.515398336759048, 23.607231912654338, 0.0 ] } },
{ "type": "Feature", "properties": { "NAME": "小梅", "stop_id": "DNS_054" }, "geometry": { "type": "Point", "coordinates": [ 120.55393559699715, 23.592212254685062, 0.0 ] } },
{ "type": "Feature", "properties": { "NAME": "排子路", "stop_id": "DNS_061" }, "geometry": { "type": "Point", "coordinates": [ 120.423921172293262, 23.608691366265617, 0.0 ] } },
{ "type": "Feature", "properties": { "NAME": "頂坪", "stop_id": "DNS_062" }, "geometry": { "type": "Point", "coordinates": [ 120.420821612889355, 23.599139207584415, 0.0 ] } },
{ "type": "Feature", "properties": { "NAME": "溪口（大日本製糖）", "stop_id": "DNS_063" }, "geometry": { "type": "Point", "coordinates": [ 120.390889500000071, 23.599533315000031, 0.0 ] } },
{ "type": "Feature", "properties": { "NAME": "和美", "stop_id": "DNS_037" }, "geometry": { "type": "Point", "coordinates": [ 120.499252596000019, 24.111950937000074, 0.0 ] } },
{ "type": "Feature", "properties": { "NAME": "柑子井", "stop_id": "DNS_039" }, "geometry": { "type": "Point", "coordinates": [ 120.517624411684054, 24.112076979392494, 0.0 ] } },
{ "type": "Feature", "properties": { "NAME": "中寮（大日本製糖）", "stop_id": "DNS_040" }, "geometry": { "type": "Point", "coordinates": [ 120.533975558088059, 24.108502229114372, 0.0 ] } },
{ "type": "Feature", "properties": { "NAME": "過溝子", "stop_id": "DNS_043" }, "geometry": { "type": "Point", "coordinates": [ 120.540067175628181, 24.086475681326725, 0.0 ] } },
{ "type": "Feature", "properties": { "NAME": "彰化（大日本製糖）", "stop_id": "DNS_044" }, "geometry": { "type": "Point", "coordinates": [ 120.537717813944511, 24.081702924646041, 0.0 ] } },
{ "type": "Feature", "properties": { "NAME": "莿桐脚", "stop_id": "DNS_047" }, "geometry": { "type": "Point", "coordinates": [ 120.516299352516654, 24.066898542131067, 0.0 ] } },
{ "type": "Feature", "properties": { "NAME": "馬鳴山", "stop_id": "DNS_049" }, "geometry": { "type": "Point", "coordinates": [ 120.495647563233618, 24.05796859896293, 0.0 ] } },
{ "type": "Feature", "properties": { "NAME": "崎溝子", "stop_id": "DNS_051" }, "geometry": { "type": "Point", "coordinates": [ 120.474657617627514, 24.055213021282306, 0.0 ] } },
{ "type": "Feature", "properties": { "NAME": "鹿港（大日本製糖）", "stop_id": "DNS_053" }, "geometry": { "type": "Point", "coordinates": [ 120.437234899371248, 24.050346456521854, 0.0 ] } },
{ "type": "Feature", "properties": { "NAME": "大甲（大日本製糖）", "stop_id": "DNS_079" }, "geometry": { "type": "Point", "coordinates": [ 120.627274333773826, 24.34390001452584, 0.0 ] } },
{ "type": "Feature", "properties": { "NAME": "大甲東", "stop_id": "DNS_077" }, "geometry": { "type": "Point", "coordinates": [ 120.646544203886052, 24.340914491665874, 0.0 ] } },
{ "type": "Feature", "properties": { "NAME": "馬鳴埔", "stop_id": "DNS_076" }, "geometry": { "type": "Point", "coordinates": [ 120.661255270594907, 24.339565952996416, 0.0 ] } },
{ "type": "Feature", "properties": { "NAME": "磁磘", "stop_id": "DNS_075" }, "geometry": { "type": "Point", "coordinates": [ 120.647813861861948, 24.322645931436131, 0.0 ] } },
{ "type": "Feature", "properties": { "NAME": "四塊厝", "stop_id": "DNS_073" }, "geometry": { "type": "Point", "coordinates": [ 120.680966167830036, 24.309191164523764, 0.0 ] } },
{ "type": "Feature", "properties": { "NAME": "月眉（后里・大甲間）", "stop_id": "DNS_350" }, "geometry": { "type": "Point", "coordinates": [ 120.695697819675516, 24.313229429440472, 0.0 ] } },
{ "type": "Feature", "properties": { "NAME": "發電所", "stop_id": "DNS_072" }, "geometry": { "type": "Point", "coordinates": [ 120.727374974139465, 24.3174216879843, 0.0 ] } },
{ "type": "Feature", "properties": { "NAME": "后里（大日本製糖）", "stop_id": "DNS_071" }, "geometry": { "type": "Point", "coordinates": [ 120.731968546940763, 24.307357676572018, 0.0 ] } },
{ "type": "Feature", "properties": { "NAME": "西螺", "stop_id": "DNS_032" }, "geometry": { "type": "Point", "coordinates": [ 120.455651749633418, 23.799591242818778, 0.0 ] } },
{ "type": "Feature", "properties": { "NAME": "二崙", "stop_id": "DNS_030" }, "geometry": { "type": "Point", "coordinates": [ 120.411093484033827, 23.773191639645848, 0.0 ] } },
{ "type": "Feature", "properties": { "NAME": "田尾（大日本製糖）", "stop_id": "DNS_023" }, "geometry": { "type": "Point", "coordinates": [ 120.410297239868854, 23.750406755427321, 0.0 ] } },
{ "type": "Feature", "properties": { "NAME": "埒內", "stop_id": "DNS_029" }, "geometry": { "type": "Point", "coordinates": [ 120.433685908131196, 23.722044756820189, 0.0 ] } },
{ "type": "Feature", "properties": { "NAME": "虎尾", "stop_id": "DNS_014" }, "geometry": { "type": "Point", "coordinates": [ 120.43648855900004, 23.704147819000074, 0.0 ] } },
{ "type": "Feature", "properties": { "NAME": "大東", "stop_id": "DNS_013" }, "geometry": { "type": "Point", "coordinates": [ 120.450115686670486, 23.679925909593408, 0.0 ] } },
{ "type": "Feature", "properties": { "NAME": "斗南（大日本製糖）", "stop_id": "DNS_012" }, "geometry": { "type": "Point", "coordinates": [ 120.48020405485336, 23.67291627309173, 0.0 ] } },
{ "type": "Feature", "properties": { "NAME": "大屯", "stop_id": "DNS_015" }, "geometry": { "type": "Point", "coordinates": [ 120.402030768812196, 23.700820342908127, 0.0 ] } },
{ "type": "Feature", "properties": { "NAME": "土庫", "stop_id": "DNS_016" }, "geometry": { "type": "Point", "coordinates": [ 120.397621719070784, 23.679974288491703, 0.0 ] } },
{ "type": "Feature", "properties": { "NAME": "奮起", "stop_id": "DNS_017" }, "geometry": { "type": "Point", "coordinates": [ 120.360519266604896, 23.666265051120572, 0.0 ] } },
{ "type": "Feature", "properties": { "NAME": "子茂", "stop_id": "DNS_018" }, "geometry": { "type": "Point", "coordinates": [ 120.336636372367096, 23.659454304035457, 0.0 ] } },
{ "type": "Feature", "properties": { "NAME": "元長", "stop_id": "DNS_019" }, "geometry": { "type": "Point", "coordinates": [ 120.319769644329838, 23.641681748485439, 0.0 ] } },
{ "type": "Feature", "properties": { "NAME": "龍岩", "stop_id": "DNS_020" }, "geometry": { "type": "Point", "coordinates": [ 120.317297414301592, 23.633357765483481, 0.0 ] } },
{ "type": "Feature", "properties": { "NAME": "新街（大日本製糖）", "stop_id": "DNS_021" }, "geometry": { "type": "Point", "coordinates": [ 120.302455407814946, 23.590063228267798, 0.0 ] } },
{ "type": "Feature", "properties": { "NAME": "北港（斗南・北港間）", "stop_id": "DNS_220" }, "geometry": { "type": "Point", "coordinates": [ 120.300768395387635, 23.572074028265924, 0.0 ] } },
{ "type": "Feature", "properties": { "NAME": "板頭厝", "stop_id": "DNS_093" }, "geometry": { "type": "Point", "coordinates": [ 120.322143841943685, 23.564914659678831, 0.0 ] } },
{ "type": "Feature", "properties": { "NAME": "新巷", "stop_id": "DNS_065" }, "geometry": { "type": "Point", "coordinates": [ 120.346037430000024, 23.554055371000061, 0.0 ] } },
{ "type": "Feature", "properties": { "NAME": "菜公厝", "stop_id": "DNS_092" }, "geometry": { "type": "Point", "coordinates": [ 120.372842864780225, 23.531306024717054, 0.0 ] } },
{ "type": "Feature", "properties": { "NAME": "牛斗山", "stop_id": "DNS_091" }, "geometry": { "type": "Point", "coordinates": [ 120.393307677235313, 23.515340151558313, 0.0 ] } },
{ "type": "Feature", "properties": { "NAME": "北社尾", "stop_id": "DNS_090" }, "geometry": { "type": "Point", "coordinates": [ 120.430490012871985, 23.487556453401506, 0.0 ] } },
{ "type": "Feature", "properties": { "NAME": "水虞厝", "stop_id": "MJS_026" }, "geometry": { "type": "Point", "coordinates": [ 120.38784157548244, 23.49114504746213, 0.0 ] } },
{ "type": "Feature", "properties": { "NAME": "大溪厝", "stop_id": "MJS_024" }, "geometry": { "type": "Point", "coordinates": [ 120.413608511835378, 23.483993795733138, 0.0 ] } },
{ "type": "Feature", "properties": { "NAME": "嘉義（大日本製糖）", "stop_id": "DNS_088" }, "geometry": { "type": "Point", "coordinates": [ 120.442737384396949, 23.48269721489088, 0.0 ] } },
{ "type": "Feature", "properties": { "NAME": "嘉義（明治製糖）", "stop_id": "MJS_023" }, "geometry": { "type": "Point", "coordinates": [ 120.437570786295055, 23.476340088697672, 0.0 ] } },
{ "type": "Feature", "properties": { "NAME": "過溝", "stop_id": "MJS_027" }, "geometry": { "type": "Point", "coordinates": [ 120.363947563391548, 23.494458549250211, 0.0 ] } },
{ "type": "Feature", "properties": { "NAME": "溪南", "stop_id": "MJS_028" }, "geometry": { "type": "Point", "coordinates": [ 120.334959658590066, 23.500901831097117, 0.0 ] } },
{ "type": "Feature", "properties": { "NAME": "田尾（明治製糖）", "stop_id": "MJS_029" }, "geometry": { "type": "Point", "coordinates": [ 120.321161770996767, 23.49334145675245, 0.0 ] } },
{ "type": "Feature", "properties": { "NAME": "蒜頭", "stop_id": "MJS_030" }, "geometry": { "type": "Point", "coordinates": [ 120.300761741220441, 23.479339648933287, 0.0 ] } },
{ "type": "Feature", "properties": { "NAME": "小槺榔", "stop_id": "MJS_031" }, "geometry": { "type": "Point", "coordinates": [ 120.281471039281769, 23.476585584270079, 0.0 ] } },
{ "type": "Feature", "properties": { "NAME": "朴子", "stop_id": "MJS_032" }, "geometry": { "type": "Point", "coordinates": [ 120.247454542035612, 23.46383846046481, 0.0 ] } },
{ "type": "Feature", "properties": { "NAME": "港墘", "stop_id": "MJS_033" }, "geometry": { "type": "Point", "coordinates": [ 120.213163973956796, 23.462493912585387, 0.0 ] } },
{ "type": "Feature", "properties": { "NAME": "北港（嘉義・烏麻園間）", "stop_id": "DNS_022" }, "geometry": { "type": "Point", "coordinates": [ 120.300136082918002, 23.569732493655899, 0.0 ] } },
{ "type": "Feature", "properties": { "NAME": "水林", "stop_id": "DNS_095" }, "geometry": { "type": "Point", "coordinates": [ 120.247198965198436, 23.576248617671475, 0.0 ] } },
{ "type": "Feature", "properties": { "NAME": "萬興", "stop_id": "DNS_096" }, "geometry": { "type": "Point", "coordinates": [ 120.231487082580159, 23.58798389088447, 0.0 ] } },
{ "type": "Feature", "properties": { "NAME": "蔡厝", "stop_id": "DNS_098" }, "geometry": { "type": "Point", "coordinates": [ 120.198699269113419, 23.593236996173196, 0.0 ] } },
{ "type": "Feature", "properties": { "NAME": "烏麻園", "stop_id": "DNS_099" }, "geometry": { "type": "Point", "coordinates": [ 120.186723869067308, 23.58458840266162, 0.0 ] } },
{ "type": "Feature", "properties": { "NAME": "線西", "stop_id": "DNS_033" }, "geometry": { "type": "Point", "coordinates": [ 120.468815947000053, 24.132232134000049, 0.0 ] } },
{ "type": "Feature", "properties": { "NAME": "埤頭（臺灣製糖）", "stop_id": "TWS_022" }, "geometry": { "type": "Point", "coordinates": [ 120.551180682950957, 22.904647114183732, 0.0 ] } },
{ "type": "Feature", "properties": { "NAME": "北勢（臺灣製糖）", "stop_id": "TWS_015" }, "geometry": { "type": "Point", "coordinates": [ 120.473557286967093, 22.871531314017105, 0.0 ] } },
{ "type": "Feature", "properties": { "NAME": "武鹿", "stop_id": "TWS_014" }, "geometry": { "type": "Point", "coordinates": [ 120.468218773089163, 22.86230022086713, 0.0 ] } },
{ "type": "Feature", "properties": { "NAME": "和尚", "stop_id": "TWS_010" }, "geometry": { "type": "Point", "coordinates": [ 120.462223675000018, 22.812940465000054, 0.0 ] } },
{ "type": "Feature", "properties": { "NAME": "南岸", "stop_id": "TWS_017" }, "geometry": { "type": "Point", "coordinates": [ 120.492480390000082, 22.881553390000079, 0.0 ] } },
{ "type": "Feature", "properties": { "NAME": "大山", "stop_id": "TWS_013" }, "geometry": { "type": "Point", "coordinates": [ 120.468987798000057, 22.852935925000054, 0.0 ] } },
{ "type": "Feature", "properties": { "NAME": "磱碡坑", "stop_id": "TWS_011" }, "geometry": { "type": "Point", "coordinates": [ 120.461766264276022, 22.832399687099198, 0.0 ] } },
{ "type": "Feature", "properties": { "NAME": "麻竹", "stop_id": "TWS_007" }, "geometry": { "type": "Point", "coordinates": [ 120.447921191735475, 22.746409454637746, 0.0 ] } },
{ "type": "Feature", "properties": { "NAME": "統嶺坑", "stop_id": "TWS_008" }, "geometry": { "type": "Point", "coordinates": [ 120.448231738000118, 22.754881010000076, 0.0 ] } },
{ "type": "Feature", "properties": { "NAME": "公館", "stop_id": "TWS_002" }, "geometry": { "type": "Point", "coordinates": [ 120.417102783730471, 22.669585247308291, 0.0 ] } },
{ "type": "Feature", "properties": { "NAME": "十五張犁", "stop_id": "DNS_034" }, "geometry": { "type": "Point", "coordinates": [ 120.47962612007575, 24.127601183707416, 0.0 ] } },
{ "type": "Feature", "properties": { "NAME": "月眉（線西・鹿港間）", "stop_id": "DNS_035" }, "geometry": { "type": "Point", "coordinates": [ 120.493027288288133, 24.118442789667629, 0.0 ] } },
{ "type": "Feature", "properties": { "NAME": "竹圍子", "stop_id": "DNS_038" }, "geometry": { "type": "Point", "coordinates": [ 120.509851126820692, 24.114205291472462, 0.0 ] } },
{ "type": "Feature", "properties": { "NAME": "茂盛厝", "stop_id": "DNS_042" }, "geometry": { "type": "Point", "coordinates": [ 120.539506508856618, 24.098641077474763, 0.0 ] } },
{ "type": "Feature", "properties": { "NAME": "新庄子", "stop_id": "DNS_041" }, "geometry": { "type": "Point", "coordinates": [ 120.536607109534998, 24.104119897936602, 0.0 ] } },
{ "type": "Feature", "properties": { "NAME": "前厝", "stop_id": "DNS_052" }, "geometry": { "type": "Point", "coordinates": [ 120.446080513797085, 24.048227405400272, 0.0 ] } },
{ "type": "Feature", "properties": { "NAME": "下莿桐脚", "stop_id": "DNS_048" }, "geometry": { "type": "Point", "coordinates": [ 120.509810365964057, 24.062122585286417, 0.0 ] } },
{ "type": "Feature", "properties": { "NAME": "平和厝", "stop_id": "DNS_046" }, "geometry": { "type": "Point", "coordinates": [ 120.519610043762313, 24.071001318565173, 0.0 ] } },
{ "type": "Feature", "properties": { "NAME": "西門口", "stop_id": "DNS_045" }, "geometry": { "type": "Point", "coordinates": [ 120.526812574976219, 24.074959441695924, 0.0 ] } },
{ "type": "Feature", "properties": { "NAME": "羅厝", "stop_id": "DNS_024" }, "geometry": { "type": "Point", "coordinates": [ 120.377391609419931, 23.757903403900592, 0.0 ] } },
{ "type": "Feature", "properties": { "NAME": "崙背", "stop_id": "DNS_025" }, "geometry": { "type": "Point", "coordinates": [ 120.351432387418185, 23.766220627721165, 0.0 ] } },
{ "type": "Feature", "properties": { "NAME": "五塊厝", "stop_id": "DNS_007" }, "geometry": { "type": "Point", "coordinates": [ 120.328944751020259, 23.770337673930541, 0.0 ] } },
{ "type": "Feature", "properties": { "NAME": "大有", "stop_id": "DNS_026" }, "geometry": { "type": "Point", "coordinates": [ 120.306609659440099, 23.76401837572568, 0.0 ] } },
{ "type": "Feature", "properties": { "NAME": "興化厝", "stop_id": "DNS_027" }, "geometry": { "type": "Point", "coordinates": [ 120.289234701770809, 23.760485508128983, 0.0 ] } },
{ "type": "Feature", "properties": { "NAME": "麥寮", "stop_id": "DNS_028" }, "geometry": { "type": "Point", "coordinates": [ 120.258695185997183, 23.748693619542813, 0.0 ] } },
{ "type": "Feature", "properties": { "NAME": "猫兒干", "stop_id": "DNS_008" }, "geometry": { "type": "Point", "coordinates": [ 120.312596575048275, 23.788296911694438, 0.0 ] } },
{ "type": "Feature", "properties": { "NAME": "橋頭", "stop_id": "DNS_010" }, "geometry": { "type": "Point", "coordinates": [ 120.274087045490049, 23.793278231346154, 0.0 ] } },
{ "type": "Feature", "properties": { "NAME": "三姓", "stop_id": "DNS_011" }, "geometry": { "type": "Point", "coordinates": [ 120.263629540889752, 23.798131739185553, 0.0 ] } },
{ "type": "Feature", "properties": { "NAME": "施厝", "stop_id": "DNS_009" }, "geometry": { "type": "Point", "coordinates": [ 120.285545581797052, 23.791812013531189, 0.0 ] } },
{ "type": "Feature", "properties": { "NAME": "大荖", "stop_id": "DNS_001" }, "geometry": { "type": "Point", "coordinates": [ 120.398759924770715, 23.691497911633203, 0.0 ] } },
{ "type": "Feature", "properties": { "NAME": "永定厝", "stop_id": "DNS_031" }, "geometry": { "type": "Point", "coordinates": [ 120.425555701537434, 23.784981513725604, 0.0 ] } },
{ "type": "Feature", "properties": { "NAME": "埔姜崙", "stop_id": "DNS_003" }, "geometry": { "type": "Point", "coordinates": [ 120.311107567197752, 23.699108972374223, 0.0 ] } },
{ "type": "Feature", "properties": { "NAME": "馬公厝", "stop_id": "DNS_002" }, "geometry": { "type": "Point", "coordinates": [ 120.355165035707202, 23.696441465315509, 0.0 ] } },
{ "type": "Feature", "properties": { "NAME": "東勢厝", "stop_id": "DNS_004" }, "geometry": { "type": "Point", "coordinates": [ 120.25846544412093, 23.686572636646439, 0.0 ] } },
{ "type": "Feature", "properties": { "NAME": "五塊寮", "stop_id": "DNS_005" }, "geometry": { "type": "Point", "coordinates": [ 120.227650162153296, 23.691795227188202, 0.0 ] } },
{ "type": "Feature", "properties": { "NAME": "海口", "stop_id": "DNS_006" }, "geometry": { "type": "Point", "coordinates": [ 120.20180739407914, 23.699850501594618, 0.0 ] } },
{ "type": "Feature", "properties": { "NAME": "南門（鹽水港製糖）", "stop_id": "ESS_019" }, "geometry": { "type": "Point", "coordinates": [ 120.264992295546293, 23.31159306520199, 0.0 ] } },
{ "type": "Feature", "properties": { "NAME": "中潭", "stop_id": "ESS_002" }, "geometry": { "type": "Point", "coordinates": [ 120.58526836000641, 23.862283528462878, 0.0 ] } },
{ "type": "Feature", "properties": { "NAME": "大灣（鹽水港製糖）", "stop_id": "ESS_010" }, "geometry": { "type": "Point", "coordinates": [ 120.439043390449314, 23.854554293197729, 0.0 ] } },
{ "type": "Feature", "properties": { "NAME": "鹿寮", "stop_id": "ESS_012" }, "geometry": { "type": "Point", "coordinates": [ 120.401877012379359, 23.863241716877528, 0.0 ] } },
{ "type": "Feature", "properties": { "NAME": "鳳山（新興製糖）", "stop_id": "SHS_001" }, "geometry": { "type": "Point", "coordinates": [ 120.358104504000039, 22.630827872000054, 0.0 ] } },
{ "type": "Feature", "properties": { "NAME": "鳳山（臺灣製糖）", "stop_id": "TWS_034" }, "geometry": { "type": "Point", "coordinates": [ 120.356777068000042, 22.631083386000057, 0.0 ] } },
{ "type": "Feature", "properties": { "NAME": "屏東（臺灣製糖）", "stop_id": "TWS_024" }, "geometry": { "type": "Point", "coordinates": [ 120.483125961000042, 22.668868991000068, 0.0 ] } },
{ "type": "Feature", "properties": { "NAME": "口庄", "stop_id": "DNS_074" }, "geometry": { "type": "Point", "coordinates": [ 120.653354439123333, 24.314106406430696, 0.0 ] } },
{ "type": "Feature", "properties": { "NAME": "南門（大日本製糖）", "stop_id": "DNS_080" }, "geometry": { "type": "Point", "coordinates": [ 120.620751149320014, 24.34427011661117, 0.0 ] } },
{ "type": "Feature", "properties": { "NAME": "橫圳", "stop_id": "DNS_081" }, "geometry": { "type": "Point", "coordinates": [ 120.614535430191154, 24.357310839905782, 0.0 ] } },
{ "type": "Feature", "properties": { "NAME": "松子脚", "stop_id": "DNS_082" }, "geometry": { "type": "Point", "coordinates": [ 120.603826252135335, 24.363411627350843, 0.0 ] } },
{ "type": "Feature", "properties": { "NAME": "脚踏", "stop_id": "DNS_083" }, "geometry": { "type": "Point", "coordinates": [ 120.598899095510333, 24.370100577443488, 0.0 ] } },
{ "type": "Feature", "properties": { "NAME": "大安港", "stop_id": "DNS_084" }, "geometry": { "type": "Point", "coordinates": [ 120.586308490436892, 24.379256432498583, 0.0 ] } },
{ "type": "Feature", "properties": { "NAME": "福興", "stop_id": "DNS_085" }, "geometry": { "type": "Point", "coordinates": [ 120.605789660994134, 24.346273311292933, 0.0 ] } },
{ "type": "Feature", "properties": { "NAME": "中庄", "stop_id": "DNS_086" }, "geometry": { "type": "Point", "coordinates": [ 120.583799369033926, 24.349350056441562, 0.0 ] } },
{ "type": "Feature", "properties": { "NAME": "東中庄", "stop_id": "DNS_087" }, "geometry": { "type": "Point", "coordinates": [ 120.593665367376062, 24.336390425842822, 0.0 ] } },
{ "type": "Feature", "properties": { "NAME": "撻子灣", "stop_id": "MJS_005" }, "geometry": { "type": "Point", "coordinates": [ 120.736711458967363, 23.889249862450711, 0.0 ] } },
{ "type": "Feature", "properties": { "NAME": "三塊厝（明治製糖）", "stop_id": "MJS_002" }, "geometry": { "type": "Point", "coordinates": [ 120.690803925867456, 23.901578350925327, 0.0 ] } },
{ "type": "Feature", "properties": { "NAME": "千秋斗", "stop_id": "MJS_003" }, "geometry": { "type": "Point", "coordinates": [ 120.706946396087176, 23.893337301109376, 0.0 ] } },
{ "type": "Feature", "properties": { "NAME": "竹子坑", "stop_id": "MJS_004" }, "geometry": { "type": "Point", "coordinates": [ 120.72423681500004, 23.893991973000027, 0.0 ] } },
{ "type": "Feature", "properties": { "NAME": "東勢閣", "stop_id": "MJS_006" }, "geometry": { "type": "Point", "coordinates": [ 120.745791495115029, 23.892045749329277, 0.0 ] } },
{ "type": "Feature", "properties": { "NAME": "中寮（明治製糖）", "stop_id": "MJS_007" }, "geometry": { "type": "Point", "coordinates": [ 120.757888039000022, 23.888934911000035, 0.0 ] } },
{ "type": "Feature", "properties": { "NAME": "鄉親寮", "stop_id": "MJS_008" }, "geometry": { "type": "Point", "coordinates": [ 120.767145754000012, 23.879925066000055, 0.0 ] } },
{ "type": "Feature", "properties": { "NAME": "豐原（臺中輕鐵）", "stop_id": "TCK_001" }, "geometry": { "type": "Point", "coordinates": [ 120.723720427000103, 24.254612208000026, 0.0 ] } },
{ "type": "Feature", "properties": { "NAME": "翁子", "stop_id": "TCK_002" }, "geometry": { "type": "Point", "coordinates": [ 120.736020519723212, 24.261394163882702, 0.0 ] } },
{ "type": "Feature", "properties": { "NAME": "埤頭（臺中輕鐵）", "stop_id": "TCK_005" }, "geometry": { "type": "Point", "coordinates": [ 120.760814952536307, 24.277137582978114, 0.0 ] } },
{ "type": "Feature", "properties": { "NAME": "朴子口", "stop_id": "TCK_004" }, "geometry": { "type": "Point", "coordinates": [ 120.746754746125063, 24.273238167973798, 0.0 ] } },
{ "type": "Feature", "properties": { "NAME": "半張", "stop_id": "TCK_003" }, "geometry": { "type": "Point", "coordinates": [ 120.74532354300004, 24.265612412000053, 0.0 ] } },
{ "type": "Feature", "properties": { "NAME": "石岡", "stop_id": "TCK_006" }, "geometry": { "type": "Point", "coordinates": [ 120.776042395000104, 24.276765666000074, 0.0 ] } },
{ "type": "Feature", "properties": { "NAME": "社寮角", "stop_id": "TCK_007" }, "geometry": { "type": "Point", "coordinates": [ 120.791713769000012, 24.273917734000065, 0.0 ] } },
{ "type": "Feature", "properties": { "NAME": "梅子", "stop_id": "TCK_008" }, "geometry": { "type": "Point", "coordinates": [ 120.80448196842741, 24.270649428683587, 0.0 ] } },
{ "type": "Feature", "properties": { "NAME": "土牛", "stop_id": "TCK_010" }, "geometry": { "type": "Point", "coordinates": [ 120.816274229000101, 24.257960577000063, 0.0 ] } },
{ "type": "Feature", "properties": { "NAME": "學校裏", "stop_id": "TCK_009" }, "geometry": { "type": "Point", "coordinates": [ 120.809517876016301, 24.268066705241203, 0.0 ] } },
{ "type": "Feature", "properties": { "NAME": "員林（明治製糖）", "stop_id": "MJS_009" }, "geometry": { "type": "Point", "coordinates": [ 120.568989402000057, 23.957631660000061, 0.0 ] } },
{ "type": "Feature", "properties": { "NAME": "南員林", "stop_id": "MJS_010" }, "geometry": { "type": "Point", "coordinates": [ 120.568787416494942, 23.956615989648082, 0.0 ] } },
{ "type": "Feature", "properties": { "NAME": "坡心", "stop_id": "MJS_011" }, "geometry": { "type": "Point", "coordinates": [ 120.543034538047991, 23.95811557907097, 0.0 ] } },
{ "type": "Feature", "properties": { "NAME": "二重湳", "stop_id": "MJS_012" }, "geometry": { "type": "Point", "coordinates": [ 120.522921088032973, 23.962641063075875, 0.0 ] } },
{ "type": "Feature", "properties": { "NAME": "巫厝", "stop_id": "MJS_013" }, "geometry": { "type": "Point", "coordinates": [ 120.503751491864719, 23.957956694291536, 0.0 ] } },
{ "type": "Feature", "properties": { "NAME": "新溪湖", "stop_id": "MJS_014" }, "geometry": { "type": "Point", "coordinates": [ 120.482425386000045, 23.95527388000005, 0.0 ] } },
{ "type": "Feature", "properties": { "NAME": "溪湖", "stop_id": "MJS_015" }, "geometry": { "type": "Point", "coordinates": [ 120.482147266000084, 23.952206029000024, 0.0 ] } },
{ "type": "Feature", "properties": { "NAME": "北溪湖", "stop_id": "MJS_016" }, "geometry": { "type": "Point", "coordinates": [ 120.481651763884059, 23.963493527148078, 0.0 ] } },
{ "type": "Feature", "properties": { "NAME": "頂寮", "stop_id": "MJS_017" }, "geometry": { "type": "Point", "coordinates": [ 120.475051136000047, 23.979595250000045, 0.0 ] } },
{ "type": "Feature", "properties": { "NAME": "埔鹽", "stop_id": "MJS_018" }, "geometry": { "type": "Point", "coordinates": [ 120.471763276465964, 23.996776662992904, 0.0 ] } },
{ "type": "Feature", "properties": { "NAME": "外中", "stop_id": "MJS_020" }, "geometry": { "type": "Point", "coordinates": [ 120.468768734053398, 24.014176692876653, 0.0 ] } },
{ "type": "Feature", "properties": { "NAME": "番社", "stop_id": "MJS_021" }, "geometry": { "type": "Point", "coordinates": [ 120.455315486654925, 24.03046902714771, 0.0 ] } },
{ "type": "Feature", "properties": { "NAME": "瓦磘", "stop_id": "MJS_019" }, "geometry": { "type": "Point", "coordinates": [ 120.469128946000069, 24.010344265000072, 0.0 ] } },
{ "type": "Feature", "properties": { "NAME": "鹿港（明治製糖）", "stop_id": "MJS_022" }, "geometry": { "type": "Point", "coordinates": [ 120.438170809000098, 24.049310720000051, 0.0 ] } },
{ "type": "Feature", "properties": { "NAME": "臺中（帝國製糖）", "stop_id": "TKS_001" }, "geometry": { "type": "Point", "coordinates": [ 120.685083065000072, 24.13645441400007, 0.0 ] } },
{ "type": "Feature", "properties": { "NAME": "烏溪南岸", "stop_id": "TKS_012" }, "geometry": { "type": "Point", "coordinates": [ 120.694625424933321, 24.003427799406502, 0.0 ] } },
{ "type": "Feature", "properties": { "NAME": "萬斗六", "stop_id": "TKS_010" }, "geometry": { "type": "Point", "coordinates": [ 120.692164733558926, 24.034489560149964, 0.0 ] } },
{ "type": "Feature", "properties": { "NAME": "北勢（大日本製糖）", "stop_id": "DNS_056" }, "geometry": { "type": "Point", "coordinates": [ 120.487958975621567, 23.621761304482796, 0.0 ] } },
{ "type": "Feature", "properties": { "NAME": "埤子頭", "stop_id": "DNS_064" }, "geometry": { "type": "Point", "coordinates": [ 120.369951239351892, 23.586780770672469, 0.0 ] } },
{ "type": "Feature", "properties": { "NAME": "竹子脚", "stop_id": "MJS_025" }, "geometry": { "type": "Point", "coordinates": [ 120.398915236273169, 23.489561100024755, 0.0 ] } },
{ "type": "Feature", "properties": { "NAME": "水上（明治製糖）", "stop_id": "MJS_048" }, "geometry": { "type": "Point", "coordinates": [ 120.384706457000107, 23.414472612000054, 0.0 ] } },
{ "type": "Feature", "properties": { "NAME": "南靖", "stop_id": "MJS_049" }, "geometry": { "type": "Point", "coordinates": [ 120.382315878000099, 23.414206498000055, 0.0 ] } },
{ "type": "Feature", "properties": { "NAME": "大崙（明治製糖）", "stop_id": "MJS_051" }, "geometry": { "type": "Point", "coordinates": [ 120.358152519694443, 23.44852224433, 0.0 ] } },
{ "type": "Feature", "properties": { "NAME": "頂過溝", "stop_id": "MJS_050" }, "geometry": { "type": "Point", "coordinates": [ 120.381379078380675, 23.432380542203351, 0.0 ] } },
{ "type": "Feature", "properties": { "NAME": "後潭", "stop_id": "MJS_052" }, "geometry": { "type": "Point", "coordinates": [ 120.345245989318727, 23.457150486079765, 0.0 ] } },
{ "type": "Feature", "properties": { "NAME": "太保", "stop_id": "MJS_053" }, "geometry": { "type": "Point", "coordinates": [ 120.332518427000082, 23.457160688000045, 0.0 ] } },
{ "type": "Feature", "properties": { "NAME": "西庄", "stop_id": "MJS_035" }, "geometry": { "type": "Point", "coordinates": [ 120.295911099000023, 23.185098498000059, 0.0 ] } },
{ "type": "Feature", "properties": { "NAME": "新麻豆", "stop_id": "MJS_039" }, "geometry": { "type": "Point", "coordinates": [ 120.247704261505731, 23.175587784262468, 0.0 ] } },
{ "type": "Feature", "properties": { "NAME": "信號所", "stop_id": "MJS_040" }, "geometry": { "type": "Point", "coordinates": [ 120.233898925000062, 23.175220495000076, 0.0 ] } },
{ "type": "Feature", "properties": { "NAME": "大灣（明治製糖）", "stop_id": "MJS_044" }, "geometry": { "type": "Point", "coordinates": [ 120.189934872171364, 23.215164027492001, 0.0 ] } },
{ "type": "Feature", "properties": { "NAME": "竹圍（大日本製糖）", "stop_id": "DNS_089" }, "geometry": { "type": "Point", "coordinates": [ 120.437189556100975, 23.485792192606681, 0.0 ] } },
{ "type": "Feature", "properties": { "NAME": "土間厝", "stop_id": "DNS_094" }, "geometry": { "type": "Point", "coordinates": [ 120.26791801164579, 23.572617821200037, 0.0 ] } },
{ "type": "Feature", "properties": { "NAME": "埤尾", "stop_id": "DNS_097" }, "geometry": { "type": "Point", "coordinates": [ 120.215209819355621, 23.596085147686953, 0.0 ] } },
{ "type": "Feature", "properties": { "NAME": "濁水（明治製糖）", "stop_id": "MJS_054" }, "geometry": { "type": "Point", "coordinates": [ 120.704051461000063, 23.834482631000071, 0.0 ] } },
{ "type": "Feature", "properties": { "NAME": "北勢頭（大日本製糖）", "stop_id": "DNS_036" }, "geometry": { "type": "Point", "coordinates": [ 120.496544666505272, 24.115770259817143, 0.0 ] } },
{ "type": "Feature", "properties": { "NAME": "北勢（鹽水港製糖）", "stop_id": "ESS_007" }, "geometry": { "type": "Point", "coordinates": [ 120.516360180843009, 23.87327723445485, 0.0 ] } },
{ "type": "Feature", "properties": { "NAME": "三塊厝（大日本製糖）", "stop_id": "DNS_050" }, "geometry": { "type": "Point", "coordinates": [ 120.488069810574132, 24.057000693910819, 0.0 ] } },
{ "type": "Feature", "properties": { "NAME": "山脚", "stop_id": "DNS_078" }, "geometry": { "type": "Point", "coordinates": [ 120.63020580080989, 24.346744106211901, 0.0 ] } },
{ "type": "Feature", "properties": { "NAME": "里港乘降場", "stop_id": "TWS_033" }, "geometry": { "type": "Point", "coordinates": [ 120.499603338000043, 22.773423616000059, 0.0 ] } },
{ "type": "Feature", "properties": { "NAME": "池南", "stop_id": "TRD_305" }, "geometry": { "type": "Point", "coordinates": [ 121.520922204687295, 23.882397670574473, 0.0 ] } }
]
}
